<?xml version="1.0" encoding="UTF-8"?>
<gpx xmlns="http://www.topografix.com/GPX/1/1" xmlns:gpxtpx="http://www.garmin.com/xmlschemas/TrackPointExtension/v1" xmlns:gpxtrkx="http://www.garmin.com/xmlschemas/TrackStatsExtension/v1" xmlns:gpxx="http://www.garmin.com/xmlschemas/GpxExtensions/v3" xmlns:xsi="https://www.w3.org/2001/XMLSchema-instance" creator="bergfex GmbH" version="1.1" xsi:schemaLocation="https://www.topografix.com/GPX/1/1 https://www.topografix.com/GPX/1/1/gpx.xsd"><metadata><link href="https://www.bergfex.at"><text>bergfex GmbH</text></link></metadata><trk><name>Arefu - Văiuga - Vânătarea lui Buteanu - Cârțișoara</name><extensions><gpxtrkx:TrackStatsExtension><gpxtrkx:Distance>3480</gpxtrkx:Distance><gpxtrkx:TotalElapsedTime>6233</gpxtrkx:TotalElapsedTime><gpxtrkx:Ascent>369</gpxtrkx:Ascent><gpxtrkx:Descent>366</gpxtrkx:Descent><gpxtrkx:MaxElevation>2454</gpxtrkx:MaxElevation><gpxtrkx:MinElevation>2046</gpxtrkx:MinElevation></gpxtrkx:TrackStatsExtension></extensions><trkseg><trkpt lat="45.6045721233" lon="24.6192606376"><ele>2044.6</ele></trkpt><trkpt lat="45.6045643" lon="24.6192552"><ele>2043.0</ele></trkpt><trkpt lat="45.6045643" lon="24.6192552"><ele>2043.8</ele></trkpt><trkpt lat="45.604628" lon="24.6193453"><ele>2044.9</ele></trkpt><trkpt lat="45.6046479" lon="24.6195103"><ele>2046.7</ele></trkpt><trkpt lat="45.6046418" lon="24.6196086"><ele>2049.4</ele></trkpt><trkpt lat="45.6045938" lon="24.6197082"><ele>2053.4</ele></trkpt><trkpt lat="45.6046147" lon="24.6198361"><ele>2056.9</ele></trkpt><trkpt lat="45.6045891" lon="24.6199033"><ele>2061.6</ele></trkpt><trkpt lat="45.6045871" lon="24.6199917"><ele>2065.8</ele></trkpt><trkpt lat="45.6045066" lon="24.6200443"><ele>2069.8</ele></trkpt><trkpt lat="45.6044352" lon="24.6200593"><ele>2073.5</ele></trkpt><trkpt lat="45.6044911" lon="24.620195"><ele>2076.7</ele></trkpt><trkpt lat="45.6044741" lon="24.6202808"><ele>2080.3</ele></trkpt><trkpt lat="45.6043696" lon="24.6202527"><ele>2084.5</ele></trkpt><trkpt lat="45.6042809" lon="24.6202808"><ele>2088.5</ele></trkpt><trkpt lat="45.6041908" lon="24.620254"><ele>2092.0</ele></trkpt><trkpt lat="45.6041532" lon="24.6203787"><ele>2097.0</ele></trkpt><trkpt lat="45.6040921" lon="24.6203184"><ele>2098.3</ele></trkpt><trkpt lat="45.6040538" lon="24.6203934"><ele>2103.5</ele></trkpt><trkpt lat="45.6039525" lon="24.6204015"><ele>2107.8</ele></trkpt><trkpt lat="45.6038859" lon="24.6203572"><ele>2110.2</ele></trkpt><trkpt lat="45.6038342" lon="24.6204565"><ele>2115.3</ele></trkpt><trkpt lat="45.6037629" lon="24.6204659"><ele>2117.6</ele></trkpt><trkpt lat="45.6037554" lon="24.6205195"><ele>2119.3</ele></trkpt><trkpt lat="45.6036391" lon="24.6204525"><ele>2120.6</ele></trkpt><trkpt lat="45.6035697" lon="24.6204632"><ele>2122.0</ele></trkpt><trkpt lat="45.6035447" lon="24.6205869"><ele>2124.6</ele></trkpt><trkpt lat="45.6035396" lon="24.6207502"><ele>2127.3</ele></trkpt><trkpt lat="45.6034458" lon="24.6209781"><ele>2133.4</ele></trkpt><trkpt lat="45.6034308" lon="24.6212383"><ele>2142.4</ele></trkpt><trkpt lat="45.603337" lon="24.6212062"><ele>2147.2</ele></trkpt><trkpt lat="45.6032506" lon="24.621123"><ele>2153.0</ele></trkpt><trkpt lat="45.6030968" lon="24.6212035"><ele>2156.2</ele></trkpt><trkpt lat="45.603093181" lon="24.62138396"><ele>2159.0</ele></trkpt><trkpt lat="45.6031211" lon="24.6215441"><ele>2164.9</ele></trkpt><trkpt lat="45.6031062" lon="24.621587"><ele>2170.3</ele></trkpt><trkpt lat="45.6029016" lon="24.621587"><ele>2175.7</ele></trkpt><trkpt lat="45.6028528" lon="24.6216219"><ele>2178.2</ele></trkpt><trkpt lat="45.6028396" lon="24.6216702"><ele>2179.5</ele></trkpt><trkpt lat="45.6028979" lon="24.6217453"><ele>2183.2</ele></trkpt><trkpt lat="45.6029542" lon="24.6218767"><ele>2186.0</ele></trkpt><trkpt lat="45.6031169" lon="24.6221253"><ele>2191.0</ele></trkpt><trkpt lat="45.6030945" lon="24.6221728"><ele>2199.4</ele></trkpt><trkpt lat="45.6028904" lon="24.6222442"><ele>2206.5</ele></trkpt><trkpt lat="45.6026389" lon="24.6222549"><ele>2215.4</ele></trkpt><trkpt lat="45.6026219" lon="24.6223381"><ele>2222.1</ele></trkpt><trkpt lat="45.602531505" lon="24.62239042"><ele>2228.0</ele></trkpt><trkpt lat="45.602455" lon="24.6224347"><ele>2234.9</ele></trkpt><trkpt lat="45.6022729" lon="24.6224748"><ele>2241.7</ele></trkpt><trkpt lat="45.6021416" lon="24.622464"><ele>2249.6</ele></trkpt><trkpt lat="45.6021154" lon="24.6223461"><ele>2252.0</ele></trkpt><trkpt lat="45.6019896" lon="24.622397"><ele>2256.6</ele></trkpt><trkpt lat="45.6019578" lon="24.622491"><ele>2260.4</ele></trkpt><trkpt lat="45.6018414" lon="24.6225795"><ele>2264.4</ele></trkpt><trkpt lat="45.6018151" lon="24.6226894"><ele>2274.0</ele></trkpt><trkpt lat="45.6017437" lon="24.6226961"><ele>2278.8</ele></trkpt><trkpt lat="45.6016989" lon="24.6229558"><ele>2286.8</ele></trkpt><trkpt lat="45.6016673" lon="24.6230119"><ele>2293.8</ele></trkpt><trkpt lat="45.6015973" lon="24.6230676"><ele>2298.7</ele></trkpt><trkpt lat="45.6015457" lon="24.623207"><ele>2304.5</ele></trkpt><trkpt lat="45.6015044" lon="24.6233996"><ele>2307.2</ele></trkpt><trkpt lat="45.601486131" lon="24.623416131"><ele>2309.6</ele></trkpt><trkpt lat="45.601455" lon="24.6234443"><ele>2311.3</ele></trkpt><trkpt lat="45.601544168" lon="24.62348131"><ele>2312.1</ele></trkpt><trkpt lat="45.601544168" lon="24.62348131"><ele>2312.1</ele></trkpt><trkpt lat="45.6016157" lon="24.623511"><ele>2312.8</ele></trkpt><trkpt lat="45.6017083" lon="24.6235797"><ele>2313.6</ele></trkpt><trkpt lat="45.6018586" lon="24.6241598"><ele>2315.6</ele></trkpt><trkpt lat="45.6019444" lon="24.6242919"><ele>2320.3</ele></trkpt><trkpt lat="45.6020657" lon="24.6247281"><ele>2327.8</ele></trkpt><trkpt lat="45.6023391" lon="24.6252018"><ele>2337.2</ele></trkpt><trkpt lat="45.6023618" lon="24.6253309"><ele>2345.8</ele></trkpt><trkpt lat="45.6024965" lon="24.6255295"><ele>2350.2</ele></trkpt><trkpt lat="45.6024788" lon="24.6256542"><ele>2350.6</ele></trkpt><trkpt lat="45.6025231" lon="24.6257753"><ele>2349.2</ele></trkpt><trkpt lat="45.6027639" lon="24.6259892"><ele>2348.6</ele></trkpt><trkpt lat="45.602932717" lon="24.6262982"><ele>2350.3</ele></trkpt><trkpt lat="45.6030528" lon="24.626518"><ele>2353.4</ele></trkpt><trkpt lat="45.6031277" lon="24.6266043"><ele>2356.0</ele></trkpt><trkpt lat="45.6032978" lon="24.6269143"><ele>2357.0</ele></trkpt><trkpt lat="45.6033888" lon="24.6271408"><ele>2358.3</ele></trkpt><trkpt lat="45.6035053" lon="24.6276188"><ele>2361.2</ele></trkpt><trkpt lat="45.6034632" lon="24.6279785"><ele>2365.8</ele></trkpt><trkpt lat="45.6034521" lon="24.6280734"><ele>2371.2</ele></trkpt><trkpt lat="45.6032919" lon="24.6286929"><ele>2377.9</ele></trkpt><trkpt lat="45.6033488" lon="24.6292109"><ele>2384.0</ele></trkpt><trkpt lat="45.603299" lon="24.6296168"><ele>2387.0</ele></trkpt><trkpt lat="45.6032916" lon="24.6302605"><ele>2392.9</ele></trkpt><trkpt lat="45.603253129" lon="24.630708776"><ele>2397.6</ele></trkpt><trkpt lat="45.6032453" lon="24.6308"><ele>2401.8</ele></trkpt><trkpt lat="45.6032247" lon="24.6309611"><ele>2409.6</ele></trkpt><trkpt lat="45.6033084" lon="24.6314979"><ele>2420.9</ele></trkpt><trkpt lat="45.6033789" lon="24.6316987"><ele>2433.4</ele></trkpt><trkpt lat="45.6034405" lon="24.63174"><ele>2445.1</ele></trkpt><trkpt lat="45.6034622" lon="24.6319592"><ele>2456.2</ele></trkpt><trkpt lat="45.6035111" lon="24.6320933"><ele>2461.2</ele></trkpt><trkpt lat="45.6034622" lon="24.6319592"><ele>2463.1</ele></trkpt><trkpt lat="45.6034405" lon="24.63174"><ele>2463.1</ele></trkpt><trkpt lat="45.6033789" lon="24.6316987"><ele>2461.2</ele></trkpt><trkpt lat="45.6033084" lon="24.6314979"><ele>2456.2</ele></trkpt><trkpt lat="45.6032247" lon="24.6309611"><ele>2445.1</ele></trkpt><trkpt lat="45.6032453" lon="24.6308"><ele>2433.4</ele></trkpt><trkpt lat="45.603357" lon="24.6307674"><ele>2423.7</ele></trkpt><trkpt lat="45.603508324" lon="24.630448419"><ele>2414.2</ele></trkpt><trkpt lat="45.6035812" lon="24.6302948"><ele>2409.1</ele></trkpt><trkpt lat="45.6039182" lon="24.6301329"><ele>2399.5</ele></trkpt><trkpt lat="45.6039967" lon="24.6301175"><ele>2386.0</ele></trkpt><trkpt lat="45.6040124" lon="24.6300578"><ele>2374.7</ele></trkpt><trkpt lat="45.6038949" lon="24.6300084"><ele>2368.3</ele></trkpt><trkpt lat="45.6039084" lon="24.6299492"><ele>2366.7</ele></trkpt><trkpt lat="45.6041505" lon="24.6298262"><ele>2363.0</ele></trkpt><trkpt lat="45.6043166" lon="24.6295972"><ele>2355.7</ele></trkpt><trkpt lat="45.6043886" lon="24.6295939"><ele>2345.9</ele></trkpt><trkpt lat="45.604423436" lon="24.629533333"><ele>2335.9</ele></trkpt><trkpt lat="45.6044701" lon="24.6294522"><ele>2328.8</ele></trkpt><trkpt lat="45.6046355" lon="24.6294305"><ele>2324.0</ele></trkpt><trkpt lat="45.6048003" lon="24.6291691"><ele>2316.2</ele></trkpt><trkpt lat="45.604962" lon="24.6290156"><ele>2307.0</ele></trkpt><trkpt lat="45.6051387" lon="24.6287506"><ele>2298.4</ele></trkpt><trkpt lat="45.6054345" lon="24.6284375"><ele>2289.6</ele></trkpt><trkpt lat="45.605462022" lon="24.628340316"><ele>2283.5</ele></trkpt><trkpt lat="45.6054731" lon="24.6283012"><ele>2280.3</ele></trkpt><trkpt lat="45.6055369" lon="24.6282205"><ele>2277.9</ele></trkpt><trkpt lat="45.6056109" lon="24.6281551"><ele>2276.7</ele></trkpt><trkpt lat="45.6058155" lon="24.6281303"><ele>2273.1</ele></trkpt><trkpt lat="45.6060011" lon="24.6279688"><ele>2266.9</ele></trkpt><trkpt lat="45.6061004" lon="24.6280113"><ele>2259.7</ele></trkpt><trkpt lat="45.6061392" lon="24.6280731"><ele>2252.0</ele></trkpt><trkpt lat="45.6062404" lon="24.6280718"><ele>2245.8</ele></trkpt><trkpt lat="45.6064236" lon="24.6280128"><ele>2241.5</ele></trkpt><trkpt lat="45.6065791" lon="24.6278885"><ele>2238.2</ele></trkpt><trkpt lat="45.60664331" lon="24.627713969"><ele>2235.1</ele></trkpt><trkpt lat="45.6067469" lon="24.6275916"><ele>2233.2</ele></trkpt><trkpt lat="45.6068906" lon="24.6275293"><ele>2231.7</ele></trkpt><trkpt lat="45.6070644" lon="24.6274931"><ele>2230.2</ele></trkpt><trkpt lat="45.6073524" lon="24.627337"><ele>2228.6</ele></trkpt><trkpt lat="45.607943775" lon="24.627179001"><ele>2225.7</ele></trkpt><trkpt lat="45.6080448" lon="24.6270394"><ele>2220.9</ele></trkpt><trkpt lat="45.6081568" lon="24.6269474"><ele>2216.0</ele></trkpt><trkpt lat="45.6082249" lon="24.626795"><ele>2211.1</ele></trkpt><trkpt lat="45.608324" lon="24.6266703"><ele>2207.3</ele></trkpt><trkpt lat="45.6083974" lon="24.6264761"><ele>2203.9</ele></trkpt><trkpt lat="45.6085412" lon="24.6264221"><ele>2199.5</ele></trkpt><trkpt lat="45.6086341" lon="24.6264932"><ele>2194.5</ele></trkpt><trkpt lat="45.6086935" lon="24.6265066"><ele>2189.2</ele></trkpt><trkpt lat="45.6087182" lon="24.6263608"><ele>2184.5</ele></trkpt><trkpt lat="45.608854903" lon="24.626014262"><ele>2179.0</ele></trkpt><trkpt lat="45.6089313" lon="24.6258206"><ele>2172.2</ele></trkpt><trkpt lat="45.6090374" lon="24.6256294"><ele>2164.2</ele></trkpt><trkpt lat="45.609151" lon="24.6255327"><ele>2157.8</ele></trkpt><trkpt lat="45.6092503" lon="24.625481"><ele>2152.4</ele></trkpt><trkpt lat="45.6093404" lon="24.6254949"><ele>2149.1</ele></trkpt><trkpt lat="45.6093716" lon="24.6254599"><ele>2147.4</ele></trkpt><trkpt lat="45.6093858" lon="24.6253988"><ele>2145.1</ele></trkpt><trkpt lat="45.6094311" lon="24.6253702"><ele>2143.0</ele></trkpt><trkpt lat="45.6094996" lon="24.6252657"><ele>2138.9</ele></trkpt><trkpt lat="45.6095241" lon="24.6251179"><ele>2133.8</ele></trkpt><trkpt lat="45.6095238" lon="24.6250212"><ele>2128.1</ele></trkpt><trkpt lat="45.6094804" lon="24.6248251"><ele>2121.8</ele></trkpt><trkpt lat="45.6095396" lon="24.6246346"><ele>2117.9</ele></trkpt><trkpt lat="45.609537568" lon="24.624568581"><ele>2114.7</ele></trkpt><trkpt lat="45.6095122" lon="24.6243576"><ele>2110.6</ele></trkpt><trkpt lat="45.6094896" lon="24.6243222"><ele>2108.0</ele></trkpt><trkpt lat="45.6094561" lon="24.62427"><ele>2105.2</ele></trkpt><trkpt lat="45.6093941" lon="24.6240458"><ele>2101.9</ele></trkpt><trkpt lat="45.609374286" lon="24.623995162"><ele>2101.5</ele></trkpt><trkpt lat="45.609374286" lon="24.623995162"><ele>2101.5</ele></trkpt><trkpt lat="45.6092764" lon="24.623745"><ele>2099.1</ele></trkpt><trkpt lat="45.6091666" lon="24.623531"><ele>2095.4</ele></trkpt><trkpt lat="45.6090878" lon="24.6234197"><ele>2091.5</ele></trkpt><trkpt lat="45.6089673" lon="24.6233425"><ele>2087.7</ele></trkpt><trkpt lat="45.6087137" lon="24.6232373"><ele>2082.6</ele></trkpt><trkpt lat="45.6086067" lon="24.6230251"><ele>2075.7</ele></trkpt><trkpt lat="45.6084983" lon="24.6228868"><ele>2068.9</ele></trkpt><trkpt lat="45.6083428" lon="24.6227932"><ele>2062.2</ele></trkpt><trkpt lat="45.6081476" lon="24.6227283"><ele>2057.8</ele></trkpt><trkpt lat="45.6079309" lon="24.6224749"><ele>2053.7</ele></trkpt><trkpt lat="45.6078086" lon="24.622421"><ele>2050.2</ele></trkpt><trkpt lat="45.607559244" lon="24.622381023"><ele>2047.5</ele></trkpt><trkpt lat="45.6075354" lon="24.6223772"><ele>2045.4</ele></trkpt><trkpt lat="45.6074542" lon="24.6224499"><ele>2045.8</ele></trkpt><trkpt lat="45.607088" lon="24.6224156"><ele>2048.2</ele></trkpt><trkpt lat="45.6070261" lon="24.6224713"><ele>2050.9</ele></trkpt><trkpt lat="45.6068146" lon="24.6224949"><ele>2054.6</ele></trkpt><trkpt lat="45.6067037" lon="24.6224156"><ele>2058.8</ele></trkpt><trkpt lat="45.6065355" lon="24.6221667"><ele>2059.8</ele></trkpt><trkpt lat="45.606433406" lon="24.621913007"><ele>2059.4</ele></trkpt><trkpt lat="45.6063336" lon="24.621665"><ele>2056.8</ele></trkpt><trkpt lat="45.6061238" lon="24.6213901"><ele>2055.5</ele></trkpt><trkpt lat="45.6059891" lon="24.6213084"><ele>2054.9</ele></trkpt><trkpt lat="45.6059079" lon="24.6212226"><ele>2053.9</ele></trkpt><trkpt lat="45.605834" lon="24.6210115"><ele>2051.8</ele></trkpt><trkpt lat="45.6057494" lon="24.6208505"><ele>2050.8</ele></trkpt><trkpt lat="45.6056677" lon="24.6205787"><ele>2048.1</ele></trkpt><trkpt lat="45.6056017" lon="24.620467271"><ele>2047.0</ele></trkpt><trkpt lat="45.6055477" lon="24.6203761"><ele>2048.1</ele></trkpt><trkpt lat="45.6053303" lon="24.6201426"><ele>2048.5</ele></trkpt><trkpt lat="45.6051338" lon="24.619809"><ele>2049.3</ele></trkpt><trkpt lat="45.6049449" lon="24.6197049"><ele>2051.7</ele></trkpt><trkpt lat="45.6047522" lon="24.6193858"><ele>2048.4</ele></trkpt><trkpt lat="45.60458403" lon="24.619268913"><ele>2044.6</ele></trkpt><trkpt lat="45.60458403" lon="24.619268913"><ele>2044.6</ele></trkpt><trkpt lat="45.6045840299" lon="24.6192689133"><ele>2044.6</ele></trkpt></trkseg></trk></gpx>
