<?xml version="1.0" encoding="UTF-8"?>
<gpx xmlns="http://www.topografix.com/GPX/1/1" xmlns:gpxtpx="http://www.garmin.com/xmlschemas/TrackPointExtension/v1" xmlns:gpxtrkx="http://www.garmin.com/xmlschemas/TrackStatsExtension/v1" xmlns:gpxx="http://www.garmin.com/xmlschemas/GpxExtensions/v3" xmlns:xsi="https://www.w3.org/2001/XMLSchema-instance" creator="bergfex GmbH" version="1.1" xsi:schemaLocation="https://www.topografix.com/GPX/1/1 https://www.topografix.com/GPX/1/1/gpx.xsd"><metadata><link href="https://www.bergfex.at"><text>bergfex GmbH</text></link></metadata><trk><name>Circuitul Pietrele Albe - muntii Apuseni</name><extensions><gpxtrkx:TrackStatsExtension><gpxtrkx:Distance>15510</gpxtrkx:Distance><gpxtrkx:TotalElapsedTime>16403</gpxtrkx:TotalElapsedTime><gpxtrkx:Ascent>607</gpxtrkx:Ascent><gpxtrkx:Descent>623</gpxtrkx:Descent><gpxtrkx:MaxElevation>1511</gpxtrkx:MaxElevation><gpxtrkx:MinElevation>964</gpxtrkx:MinElevation></gpxtrkx:TrackStatsExtension></extensions><trkseg><trkpt lat="46.707088" lon="22.840595"><ele>980.0</ele></trkpt><trkpt lat="46.707176" lon="22.84012"><ele>981.0</ele></trkpt><trkpt lat="46.70776" lon="22.839699"><ele>983.0</ele></trkpt><trkpt lat="46.70797" lon="22.839748"><ele>984.0</ele></trkpt><trkpt lat="46.708218" lon="22.83943"><ele>986.0</ele></trkpt><trkpt lat="46.708401" lon="22.838758"><ele>989.0</ele></trkpt><trkpt lat="46.708565" lon="22.838379"><ele>991.0</ele></trkpt><trkpt lat="46.708763" lon="22.838146"><ele>993.0</ele></trkpt><trkpt lat="46.708908" lon="22.837599"><ele>997.0</ele></trkpt><trkpt lat="46.709248" lon="22.836899"><ele>1000.0</ele></trkpt><trkpt lat="46.709339" lon="22.836407"><ele>1002.0</ele></trkpt><trkpt lat="46.709717" lon="22.835703"><ele>1004.0</ele></trkpt><trkpt lat="46.709839" lon="22.835205"><ele>1004.0</ele></trkpt><trkpt lat="46.709579" lon="22.834061"><ele>1006.0</ele></trkpt><trkpt lat="46.709702" lon="22.833677"><ele>1007.0</ele></trkpt><trkpt lat="46.709679" lon="22.833172"><ele>1010.0</ele></trkpt><trkpt lat="46.70985" lon="22.832832"><ele>1012.0</ele></trkpt><trkpt lat="46.709866" lon="22.832624"><ele>1013.0</ele></trkpt><trkpt lat="46.709976" lon="22.832485"><ele>1014.0</ele></trkpt><trkpt lat="46.710068" lon="22.832077"><ele>1016.0</ele></trkpt><trkpt lat="46.710278" lon="22.831684"><ele>1018.0</ele></trkpt><trkpt lat="46.710346" lon="22.831245"><ele>1019.0</ele></trkpt><trkpt lat="46.710739" lon="22.830418"><ele>1021.0</ele></trkpt><trkpt lat="46.710819" lon="22.829817"><ele>1023.0</ele></trkpt><trkpt lat="46.711029" lon="22.829531"><ele>1024.0</ele></trkpt><trkpt lat="46.710945" lon="22.829384"><ele>1024.0</ele></trkpt><trkpt lat="46.71093" lon="22.829485"><ele>1024.0</ele></trkpt><trkpt lat="46.710972" lon="22.829391"><ele>1024.0</ele></trkpt><trkpt lat="46.710922" lon="22.829374"><ele>1023.0</ele></trkpt><trkpt lat="46.710808" lon="22.829609"><ele>1022.0</ele></trkpt><trkpt lat="46.71085" lon="22.829739"><ele>1022.0</ele></trkpt><trkpt lat="46.710598" lon="22.829823"><ele>1022.0</ele></trkpt><trkpt lat="46.710388" lon="22.830059"><ele>1024.0</ele></trkpt><trkpt lat="46.710285" lon="22.830067"><ele>1024.0</ele></trkpt><trkpt lat="46.710243" lon="22.829996"><ele>1025.0</ele></trkpt><trkpt lat="46.710106" lon="22.830053"><ele>1025.0</ele></trkpt><trkpt lat="46.709885" lon="22.830267"><ele>1027.0</ele></trkpt><trkpt lat="46.709736" lon="22.830296"><ele>1028.0</ele></trkpt><trkpt lat="46.709511" lon="22.830477"><ele>1032.0</ele></trkpt><trkpt lat="46.709702" lon="22.830391"><ele>1034.0</ele></trkpt><trkpt lat="46.71006" lon="22.830074"><ele>1039.0</ele></trkpt><trkpt lat="46.71043" lon="22.829613"><ele>1045.0</ele></trkpt><trkpt lat="46.710583" lon="22.82933"><ele>1047.0</ele></trkpt><trkpt lat="46.710602" lon="22.828836"><ele>1050.0</ele></trkpt><trkpt lat="46.710777" lon="22.828358"><ele>1052.0</ele></trkpt><trkpt lat="46.710766" lon="22.828054"><ele>1053.0</ele></trkpt><trkpt lat="46.710686" lon="22.82786"><ele>1054.0</ele></trkpt><trkpt lat="46.710732" lon="22.827513"><ele>1056.0</ele></trkpt><trkpt lat="46.710506" lon="22.82692"><ele>1057.0</ele></trkpt><trkpt lat="46.710697" lon="22.82637"><ele>1057.0</ele></trkpt><trkpt lat="46.710781" lon="22.82546"><ele>1058.0</ele></trkpt><trkpt lat="46.710663" lon="22.824404"><ele>1064.0</ele></trkpt><trkpt lat="46.710712" lon="22.82406"><ele>1067.0</ele></trkpt><trkpt lat="46.711174" lon="22.823345"><ele>1070.0</ele></trkpt><trkpt lat="46.711441" lon="22.823195"><ele>1070.0</ele></trkpt><trkpt lat="46.711479" lon="22.823084"><ele>1070.0</ele></trkpt><trkpt lat="46.711788" lon="22.823044"><ele>1070.0</ele></trkpt><trkpt lat="46.711967" lon="22.822947"><ele>1069.0</ele></trkpt><trkpt lat="46.712074" lon="22.823009"><ele>1069.0</ele></trkpt><trkpt lat="46.712215" lon="22.822948"><ele>1069.0</ele></trkpt><trkpt lat="46.712463" lon="22.822561"><ele>1070.0</ele></trkpt><trkpt lat="46.71254" lon="22.822247"><ele>1070.0</ele></trkpt><trkpt lat="46.712479" lon="22.82176"><ele>1069.0</ele></trkpt><trkpt lat="46.712204" lon="22.821268"><ele>1070.0</ele></trkpt><trkpt lat="46.712238" lon="22.820772"><ele>1072.0</ele></trkpt><trkpt lat="46.71262" lon="22.819822"><ele>1076.0</ele></trkpt><trkpt lat="46.712605" lon="22.819639"><ele>1077.0</ele></trkpt><trkpt lat="46.712864" lon="22.819506"><ele>1077.0</ele></trkpt><trkpt lat="46.713257" lon="22.818354"><ele>1079.0</ele></trkpt><trkpt lat="46.713451" lon="22.81809"><ele>1080.0</ele></trkpt><trkpt lat="46.71365" lon="22.817602"><ele>1082.0</ele></trkpt><trkpt lat="46.713886" lon="22.817232"><ele>1085.0</ele></trkpt><trkpt lat="46.714043" lon="22.816519"><ele>1088.0</ele></trkpt><trkpt lat="46.71405" lon="22.815535"><ele>1091.0</ele></trkpt><trkpt lat="46.713879" lon="22.815001"><ele>1093.0</ele></trkpt><trkpt lat="46.713924" lon="22.81444"><ele>1095.0</ele></trkpt><trkpt lat="46.713875" lon="22.813801"><ele>1098.0</ele></trkpt><trkpt lat="46.713909" lon="22.813141"><ele>1101.0</ele></trkpt><trkpt lat="46.71405" lon="22.812735"><ele>1104.0</ele></trkpt><trkpt lat="46.714039" lon="22.812445"><ele>1105.0</ele></trkpt><trkpt lat="46.714157" lon="22.812189"><ele>1107.0</ele></trkpt><trkpt lat="46.714123" lon="22.811899"><ele>1107.0</ele></trkpt><trkpt lat="46.714214" lon="22.811943"><ele>1108.0</ele></trkpt><trkpt lat="46.714462" lon="22.811758"><ele>1108.0</ele></trkpt><trkpt lat="46.714569" lon="22.811777"><ele>1108.0</ele></trkpt><trkpt lat="46.714725" lon="22.811831"><ele>1108.0</ele></trkpt><trkpt lat="46.714951" lon="22.812092"><ele>1109.0</ele></trkpt><trkpt lat="46.715206" lon="22.812225"><ele>1109.0</ele></trkpt><trkpt lat="46.715816" lon="22.811745"><ele>1109.0</ele></trkpt><trkpt lat="46.716026" lon="22.811411"><ele>1110.0</ele></trkpt><trkpt lat="46.716282" lon="22.811157"><ele>1110.0</ele></trkpt><trkpt lat="46.717014" lon="22.810852"><ele>1112.0</ele></trkpt><trkpt lat="46.718513" lon="22.80991"><ele>1116.0</ele></trkpt><trkpt lat="46.719101" lon="22.809061"><ele>1117.0</ele></trkpt><trkpt lat="46.719181" lon="22.808844"><ele>1118.0</ele></trkpt><trkpt lat="46.719505" lon="22.808674"><ele>1118.0</ele></trkpt><trkpt lat="46.719845" lon="22.808714"><ele>1118.0</ele></trkpt><trkpt lat="46.720413" lon="22.808674"><ele>1121.0</ele></trkpt><trkpt lat="46.72065" lon="22.808172"><ele>1122.0</ele></trkpt><trkpt lat="46.720669" lon="22.807817"><ele>1123.0</ele></trkpt><trkpt lat="46.720779" lon="22.807482"><ele>1124.0</ele></trkpt><trkpt lat="46.720734" lon="22.807182"><ele>1125.0</ele></trkpt><trkpt lat="46.72094" lon="22.806963"><ele>1125.0</ele></trkpt><trkpt lat="46.721191" lon="22.807007"><ele>1126.0</ele></trkpt><trkpt lat="46.721508" lon="22.806725"><ele>1128.0</ele></trkpt><trkpt lat="46.721565" lon="22.806807"><ele>1128.0</ele></trkpt><trkpt lat="46.721745" lon="22.806854"><ele>1128.0</ele></trkpt><trkpt lat="46.721748" lon="22.806976"><ele>1128.0</ele></trkpt><trkpt lat="46.722054" lon="22.80686"><ele>1129.0</ele></trkpt><trkpt lat="46.722298" lon="22.806871"><ele>1130.0</ele></trkpt><trkpt lat="46.722527" lon="22.806627"><ele>1132.0</ele></trkpt><trkpt lat="46.722752" lon="22.806641"><ele>1133.0</ele></trkpt><trkpt lat="46.722809" lon="22.806484"><ele>1135.0</ele></trkpt><trkpt lat="46.722939" lon="22.806589"><ele>1136.0</ele></trkpt><trkpt lat="46.723171" lon="22.806553"><ele>1140.0</ele></trkpt><trkpt lat="46.723221" lon="22.806452"><ele>1142.0</ele></trkpt><trkpt lat="46.723576" lon="22.806559"><ele>1148.0</ele></trkpt><trkpt lat="46.723728" lon="22.806494"><ele>1148.0</ele></trkpt><trkpt lat="46.724098" lon="22.80649"><ele>1148.0</ele></trkpt><trkpt lat="46.724297" lon="22.806299"><ele>1148.0</ele></trkpt><trkpt lat="46.724388" lon="22.806313"><ele>1149.0</ele></trkpt><trkpt lat="46.724567" lon="22.806158"><ele>1149.0</ele></trkpt><trkpt lat="46.724979" lon="22.806053"><ele>1149.0</ele></trkpt><trkpt lat="46.725338" lon="22.805822"><ele>1151.0</ele></trkpt><trkpt lat="46.725483" lon="22.805815"><ele>1152.0</ele></trkpt><trkpt lat="46.725719" lon="22.805573"><ele>1156.0</ele></trkpt><trkpt lat="46.725727" lon="22.805363"><ele>1159.0</ele></trkpt><trkpt lat="46.725971" lon="22.804726"><ele>1169.0</ele></trkpt><trkpt lat="46.726376" lon="22.804382"><ele>1174.0</ele></trkpt><trkpt lat="46.726765" lon="22.803526"><ele>1179.0</ele></trkpt><trkpt lat="46.726936" lon="22.803373"><ele>1181.0</ele></trkpt><trkpt lat="46.727154" lon="22.803316"><ele>1183.0</ele></trkpt><trkpt lat="46.727299" lon="22.803034"><ele>1187.0</ele></trkpt><trkpt lat="46.727394" lon="22.803009"><ele>1189.0</ele></trkpt><trkpt lat="46.727657" lon="22.803143"><ele>1195.0</ele></trkpt><trkpt lat="46.72781" lon="22.803148"><ele>1198.0</ele></trkpt><trkpt lat="46.728069" lon="22.802999"><ele>1202.0</ele></trkpt><trkpt lat="46.728214" lon="22.803013"><ele>1202.0</ele></trkpt><trkpt lat="46.72855" lon="22.803265"><ele>1203.0</ele></trkpt><trkpt lat="46.728668" lon="22.803499"><ele>1206.0</ele></trkpt><trkpt lat="46.728783" lon="22.803518"><ele>1207.0</ele></trkpt><trkpt lat="46.729012" lon="22.803419"><ele>1208.0</ele></trkpt><trkpt lat="46.729221" lon="22.803448"><ele>1207.0</ele></trkpt><trkpt lat="46.729565" lon="22.803368"><ele>1207.0</ele></trkpt><trkpt lat="46.729645" lon="22.80328"><ele>1208.0</ele></trkpt><trkpt lat="46.729794" lon="22.803268"><ele>1209.0</ele></trkpt><trkpt lat="46.73011" lon="22.803028"><ele>1212.0</ele></trkpt><trkpt lat="46.730145" lon="22.802895"><ele>1213.0</ele></trkpt><trkpt lat="46.730446" lon="22.802708"><ele>1217.0</ele></trkpt><trkpt lat="46.730549" lon="22.802729"><ele>1218.0</ele></trkpt><trkpt lat="46.730709" lon="22.802912"><ele>1220.0</ele></trkpt><trkpt lat="46.730721" lon="22.802845"><ele>1221.0</ele></trkpt><trkpt lat="46.73093" lon="22.803122"><ele>1225.0</ele></trkpt><trkpt lat="46.73119" lon="22.802896"><ele>1228.0</ele></trkpt><trkpt lat="46.731594" lon="22.803055"><ele>1231.0</ele></trkpt><trkpt lat="46.731705" lon="22.803188"><ele>1233.0</ele></trkpt><trkpt lat="46.731888" lon="22.803257"><ele>1235.0</ele></trkpt><trkpt lat="46.731888" lon="22.803326"><ele>1236.0</ele></trkpt><trkpt lat="46.731922" lon="22.803263"><ele>1236.0</ele></trkpt><trkpt lat="46.73214" lon="22.803225"><ele>1238.0</ele></trkpt><trkpt lat="46.732384" lon="22.803289"><ele>1241.0</ele></trkpt><trkpt lat="46.733028" lon="22.802984"><ele>1248.0</ele></trkpt><trkpt lat="46.73304" lon="22.802843"><ele>1249.0</ele></trkpt><trkpt lat="46.73315" lon="22.802818"><ele>1251.0</ele></trkpt><trkpt lat="46.733288" lon="22.802553"><ele>1254.0</ele></trkpt><trkpt lat="46.733387" lon="22.802523"><ele>1255.0</ele></trkpt><trkpt lat="46.733486" lon="22.802353"><ele>1257.0</ele></trkpt><trkpt lat="46.733593" lon="22.802374"><ele>1258.0</ele></trkpt><trkpt lat="46.733711" lon="22.802258"><ele>1260.0</ele></trkpt><trkpt lat="46.734268" lon="22.802469"><ele>1266.0</ele></trkpt><trkpt lat="46.734261" lon="22.80254"><ele>1267.0</ele></trkpt><trkpt lat="46.734535" lon="22.802702"><ele>1271.0</ele></trkpt><trkpt lat="46.734764" lon="22.802658"><ele>1277.0</ele></trkpt><trkpt lat="46.734886" lon="22.802773"><ele>1280.0</ele></trkpt><trkpt lat="46.734974" lon="22.802713"><ele>1282.0</ele></trkpt><trkpt lat="46.735027" lon="22.802834"><ele>1284.0</ele></trkpt><trkpt lat="46.735275" lon="22.802868"><ele>1288.0</ele></trkpt><trkpt lat="46.735504" lon="22.802778"><ele>1292.0</ele></trkpt><trkpt lat="46.735786" lon="22.802902"><ele>1296.0</ele></trkpt><trkpt lat="46.735977" lon="22.802912"><ele>1299.0</ele></trkpt><trkpt lat="46.736061" lon="22.802853"><ele>1300.0</ele></trkpt><trkpt lat="46.736179" lon="22.802973"><ele>1303.0</ele></trkpt><trkpt lat="46.736519" lon="22.803007"><ele>1310.0</ele></trkpt><trkpt lat="46.736645" lon="22.802862"><ele>1311.0</ele></trkpt><trkpt lat="46.736843" lon="22.8029"><ele>1315.0</ele></trkpt><trkpt lat="46.736912" lon="22.802719"><ele>1319.0</ele></trkpt><trkpt lat="46.737209" lon="22.80271"><ele>1325.0</ele></trkpt><trkpt lat="46.737537" lon="22.802586"><ele>1334.0</ele></trkpt><trkpt lat="46.737675" lon="22.802662"><ele>1338.0</ele></trkpt><trkpt lat="46.73782" lon="22.80258"><ele>1341.0</ele></trkpt><trkpt lat="46.738274" lon="22.802837"><ele>1356.0</ele></trkpt><trkpt lat="46.738705" lon="22.802795"><ele>1370.0</ele></trkpt><trkpt lat="46.738815" lon="22.803032"><ele>1375.0</ele></trkpt><trkpt lat="46.739178" lon="22.803148"><ele>1386.0</ele></trkpt><trkpt lat="46.739227" lon="22.802959"><ele>1389.0</ele></trkpt><trkpt lat="46.739456" lon="22.803036"><ele>1396.0</ele></trkpt><trkpt lat="46.739571" lon="22.80291"><ele>1397.0</ele></trkpt><trkpt lat="46.739697" lon="22.802879"><ele>1399.0</ele></trkpt><trkpt lat="46.739742" lon="22.80249"><ele>1408.0</ele></trkpt><trkpt lat="46.739819" lon="22.802322"><ele>1413.0</ele></trkpt><trkpt lat="46.740067" lon="22.802324"><ele>1420.0</ele></trkpt><trkpt lat="46.740105" lon="22.802382"><ele>1421.0</ele></trkpt><trkpt lat="46.740147" lon="22.802336"><ele>1422.0</ele></trkpt><trkpt lat="46.740238" lon="22.802523"><ele>1426.0</ele></trkpt><trkpt lat="46.74033" lon="22.802523"><ele>1428.0</ele></trkpt><trkpt lat="46.740303" lon="22.802313"><ele>1431.0</ele></trkpt><trkpt lat="46.740349" lon="22.802444"><ele>1432.0</ele></trkpt><trkpt lat="46.740589" lon="22.802326"><ele>1437.0</ele></trkpt><trkpt lat="46.740543" lon="22.802305"><ele>1438.0</ele></trkpt><trkpt lat="46.740475" lon="22.802401"><ele>1439.0</ele></trkpt><trkpt lat="46.74052" lon="22.802385"><ele>1440.0</ele></trkpt><trkpt lat="46.740608" lon="22.801933"><ele>1450.0</ele></trkpt><trkpt lat="46.740818" lon="22.801748"><ele>1460.0</ele></trkpt><trkpt lat="46.740971" lon="22.801399"><ele>1472.0</ele></trkpt><trkpt lat="46.740967" lon="22.800976"><ele>1483.0</ele></trkpt><trkpt lat="46.741077" lon="22.800865"><ele>1488.0</ele></trkpt><trkpt lat="46.741219" lon="22.800917"><ele>1493.0</ele></trkpt><trkpt lat="46.741482" lon="22.800842"><ele>1499.0</ele></trkpt><trkpt lat="46.741825" lon="22.801281"><ele>1504.0</ele></trkpt><trkpt lat="46.741997" lon="22.801863"><ele>1507.0</ele></trkpt><trkpt lat="46.741989" lon="22.80217"><ele>1508.0</ele></trkpt><trkpt lat="46.741821" lon="22.802639"><ele>1508.0</ele></trkpt><trkpt lat="46.741295" lon="22.803625"><ele>1504.0</ele></trkpt><trkpt lat="46.74107" lon="22.803846"><ele>1502.0</ele></trkpt><trkpt lat="46.740944" lon="22.804085"><ele>1501.0</ele></trkpt><trkpt lat="46.740765" lon="22.804201"><ele>1502.0</ele></trkpt><trkpt lat="46.74062" lon="22.804405"><ele>1504.0</ele></trkpt><trkpt lat="46.740341" lon="22.80452"><ele>1504.0</ele></trkpt><trkpt lat="46.740051" lon="22.804754"><ele>1501.0</ele></trkpt><trkpt lat="46.739758" lon="22.805044"><ele>1493.0</ele></trkpt><trkpt lat="46.739746" lon="22.805189"><ele>1491.0</ele></trkpt><trkpt lat="46.739601" lon="22.805201"><ele>1486.0</ele></trkpt><trkpt lat="46.739525" lon="22.80545"><ele>1481.0</ele></trkpt><trkpt lat="46.739391" lon="22.805479"><ele>1477.0</ele></trkpt><trkpt lat="46.73938" lon="22.80541"><ele>1476.0</ele></trkpt><trkpt lat="46.73933" lon="22.805613"><ele>1472.0</ele></trkpt><trkpt lat="46.739403" lon="22.805698"><ele>1470.0</ele></trkpt><trkpt lat="46.739235" lon="22.805712"><ele>1466.0</ele></trkpt><trkpt lat="46.739204" lon="22.805834"><ele>1465.0</ele></trkpt><trkpt lat="46.73904" lon="22.80599"><ele>1462.0</ele></trkpt><trkpt lat="46.738819" lon="22.806046"><ele>1460.0</ele></trkpt><trkpt lat="46.738457" lon="22.806284"><ele>1457.0</ele></trkpt><trkpt lat="46.73811" lon="22.806824"><ele>1458.0</ele></trkpt><trkpt lat="46.737885" lon="22.806971"><ele>1459.0</ele></trkpt><trkpt lat="46.737686" lon="22.80698"><ele>1459.0</ele></trkpt><trkpt lat="46.737438" lon="22.806902"><ele>1460.0</ele></trkpt><trkpt lat="46.737453" lon="22.806988"><ele>1460.0</ele></trkpt><trkpt lat="46.737362" lon="22.806997"><ele>1460.0</ele></trkpt><trkpt lat="46.737389" lon="22.807207"><ele>1461.0</ele></trkpt><trkpt lat="46.737305" lon="22.807262"><ele>1461.0</ele></trkpt><trkpt lat="46.737251" lon="22.807257"><ele>1462.0</ele></trkpt><trkpt lat="46.737221" lon="22.807056"><ele>1466.0</ele></trkpt><trkpt lat="46.737087" lon="22.807125"><ele>1470.0</ele></trkpt><trkpt lat="46.737" lon="22.807062"><ele>1472.0</ele></trkpt><trkpt lat="46.736885" lon="22.807194"><ele>1474.0</ele></trkpt><trkpt lat="46.736736" lon="22.807205"><ele>1476.0</ele></trkpt><trkpt lat="46.736729" lon="22.807346"><ele>1477.0</ele></trkpt><trkpt lat="46.736416" lon="22.807478"><ele>1480.0</ele></trkpt><trkpt lat="46.736389" lon="22.807543"><ele>1480.0</ele></trkpt><trkpt lat="46.735905" lon="22.807697"><ele>1486.0</ele></trkpt><trkpt lat="46.735821" lon="22.807783"><ele>1487.0</ele></trkpt><trkpt lat="46.7356" lon="22.807676"><ele>1492.0</ele></trkpt><trkpt lat="46.735294" lon="22.807981"><ele>1501.0</ele></trkpt><trkpt lat="46.735027" lon="22.80813"><ele>1508.0</ele></trkpt><trkpt lat="46.734955" lon="22.808578"><ele>1511.0</ele></trkpt><trkpt lat="46.734814" lon="22.808878"><ele>1510.0</ele></trkpt><trkpt lat="46.734665" lon="22.808926"><ele>1508.0</ele></trkpt><trkpt lat="46.734612" lon="22.809019"><ele>1506.0</ele></trkpt><trkpt lat="46.734661" lon="22.809225"><ele>1502.0</ele></trkpt><trkpt lat="46.734901" lon="22.809549"><ele>1502.0</ele></trkpt><trkpt lat="46.734997" lon="22.809847"><ele>1509.0</ele></trkpt><trkpt lat="46.734577" lon="22.810415"><ele>1508.0</ele></trkpt><trkpt lat="46.734535" lon="22.810452"><ele>1507.0</ele></trkpt><trkpt lat="46.734528" lon="22.810385"><ele>1507.0</ele></trkpt><trkpt lat="46.734177" lon="22.810747"><ele>1503.0</ele></trkpt><trkpt lat="46.733967" lon="22.811052"><ele>1501.0</ele></trkpt><trkpt lat="46.733788" lon="22.811129"><ele>1499.0</ele></trkpt><trkpt lat="46.733757" lon="22.811228"><ele>1498.0</ele></trkpt><trkpt lat="46.733803" lon="22.811213"><ele>1497.0</ele></trkpt><trkpt lat="46.733711" lon="22.811195"><ele>1496.0</ele></trkpt><trkpt lat="46.733379" lon="22.811363"><ele>1492.0</ele></trkpt><trkpt lat="46.733097" lon="22.811302"><ele>1492.0</ele></trkpt><trkpt lat="46.733009" lon="22.811481"><ele>1491.0</ele></trkpt><trkpt lat="46.732857" lon="22.81152"><ele>1491.0</ele></trkpt><trkpt lat="46.732517" lon="22.811024"><ele>1491.0</ele></trkpt><trkpt lat="46.73238" lon="22.810261"><ele>1493.0</ele></trkpt><trkpt lat="46.73241" lon="22.809982"><ele>1494.0</ele></trkpt><trkpt lat="46.732292" lon="22.81002"><ele>1494.0</ele></trkpt><trkpt lat="46.73241" lon="22.810112"><ele>1494.0</ele></trkpt><trkpt lat="46.73238" lon="22.810318"><ele>1492.0</ele></trkpt><trkpt lat="46.732529" lon="22.811083"><ele>1489.0</ele></trkpt><trkpt lat="46.732716" lon="22.811184"><ele>1489.0</ele></trkpt><trkpt lat="46.732796" lon="22.81144"><ele>1489.0</ele></trkpt><trkpt lat="46.732628" lon="22.811686"><ele>1488.0</ele></trkpt><trkpt lat="46.732594" lon="22.812267"><ele>1484.0</ele></trkpt><trkpt lat="46.732353" lon="22.812904"><ele>1471.0</ele></trkpt><trkpt lat="46.732086" lon="22.813255"><ele>1461.0</ele></trkpt><trkpt lat="46.731907" lon="22.813154"><ele>1455.0</ele></trkpt><trkpt lat="46.731731" lon="22.81328"><ele>1449.0</ele></trkpt><trkpt lat="46.731625" lon="22.813141"><ele>1445.0</ele></trkpt><trkpt lat="46.731483" lon="22.813232"><ele>1440.0</ele></trkpt><trkpt lat="46.731464" lon="22.81336"><ele>1437.0</ele></trkpt><trkpt lat="46.731369" lon="22.813421"><ele>1434.0</ele></trkpt><trkpt lat="46.73114" lon="22.813328"><ele>1427.0</ele></trkpt><trkpt lat="46.731041" lon="22.813457"><ele>1423.0</ele></trkpt><trkpt lat="46.730862" lon="22.813351"><ele>1417.0</ele></trkpt><trkpt lat="46.73061" lon="22.813589"><ele>1409.0</ele></trkpt><trkpt lat="46.730453" lon="22.813593"><ele>1406.0</ele></trkpt><trkpt lat="46.730122" lon="22.813503"><ele>1398.0</ele></trkpt><trkpt lat="46.72995" lon="22.813301"><ele>1390.0</ele></trkpt><trkpt lat="46.730042" lon="22.813232"><ele>1387.0</ele></trkpt><trkpt lat="46.730026" lon="22.813105"><ele>1384.0</ele></trkpt><trkpt lat="46.730125" lon="22.813017"><ele>1380.0</ele></trkpt><trkpt lat="46.730053" lon="22.812933"><ele>1376.0</ele></trkpt><trkpt lat="46.73024" lon="22.812597"><ele>1365.0</ele></trkpt><trkpt lat="46.730274" lon="22.812311"><ele>1358.0</ele></trkpt><trkpt lat="46.730057" lon="22.811943"><ele>1346.0</ele></trkpt><trkpt lat="46.729908" lon="22.811981"><ele>1341.0</ele></trkpt><trkpt lat="46.729897" lon="22.812046"><ele>1339.0</ele></trkpt><trkpt lat="46.729805" lon="22.812029"><ele>1335.0</ele></trkpt><trkpt lat="46.72963" lon="22.811489"><ele>1321.0</ele></trkpt><trkpt lat="46.729633" lon="22.810595"><ele>1303.0</ele></trkpt><trkpt lat="46.729752" lon="22.810406"><ele>1297.0</ele></trkpt><trkpt lat="46.729763" lon="22.810026"><ele>1288.0</ele></trkpt><trkpt lat="46.72961" lon="22.809853"><ele>1281.0</ele></trkpt><trkpt lat="46.729237" lon="22.809746"><ele>1267.0</ele></trkpt><trkpt lat="46.729218" lon="22.809565"><ele>1262.0</ele></trkpt><trkpt lat="46.728931" lon="22.809256"><ele>1248.0</ele></trkpt><trkpt lat="46.728886" lon="22.809114"><ele>1245.0</ele></trkpt><trkpt lat="46.728748" lon="22.809099"><ele>1241.0</ele></trkpt><trkpt lat="46.728611" lon="22.808804"><ele>1235.0</ele></trkpt><trkpt lat="46.728413" lon="22.808708"><ele>1230.0</ele></trkpt><trkpt lat="46.728397" lon="22.808508"><ele>1226.0</ele></trkpt><trkpt lat="46.72831" lon="22.808441"><ele>1224.0</ele></trkpt><trkpt lat="46.728313" lon="22.808245"><ele>1221.0</ele></trkpt><trkpt lat="46.728256" lon="22.80825"><ele>1220.0</ele></trkpt><trkpt lat="46.728142" lon="22.808111"><ele>1217.0</ele></trkpt><trkpt lat="46.727993" lon="22.80757"><ele>1208.0</ele></trkpt><trkpt lat="46.727848" lon="22.807398"><ele>1205.0</ele></trkpt><trkpt lat="46.727818" lon="22.807268"><ele>1203.0</ele></trkpt><trkpt lat="46.727852" lon="22.807318"><ele>1203.0</ele></trkpt><trkpt lat="46.727802" lon="22.807339"><ele>1202.0</ele></trkpt><trkpt lat="46.727661" lon="22.807133"><ele>1200.0</ele></trkpt><trkpt lat="46.727562" lon="22.806747"><ele>1196.0</ele></trkpt><trkpt lat="46.727612" lon="22.806553"><ele>1194.0</ele></trkpt><trkpt lat="46.72757" lon="22.806049"><ele>1188.0</ele></trkpt><trkpt lat="46.72744" lon="22.80582"><ele>1184.0</ele></trkpt><trkpt lat="46.727207" lon="22.805777"><ele>1178.0</ele></trkpt><trkpt lat="46.726936" lon="22.805487"><ele>1170.0</ele></trkpt><trkpt lat="46.726593" lon="22.805468"><ele>1163.0</ele></trkpt><trkpt lat="46.726452" lon="22.805372"><ele>1160.0</ele></trkpt><trkpt lat="46.726341" lon="22.805393"><ele>1159.0</ele></trkpt><trkpt lat="46.726112" lon="22.805309"><ele>1157.0</ele></trkpt><trkpt lat="46.72575" lon="22.805687"><ele>1155.0</ele></trkpt><trkpt lat="46.725502" lon="22.805758"><ele>1153.0</ele></trkpt><trkpt lat="46.725437" lon="22.805674"><ele>1153.0</ele></trkpt><trkpt lat="46.725132" lon="22.805702"><ele>1152.0</ele></trkpt><trkpt lat="46.724274" lon="22.806129"><ele>1150.0</ele></trkpt><trkpt lat="46.724197" lon="22.806219"><ele>1150.0</ele></trkpt><trkpt lat="46.723988" lon="22.806189"><ele>1150.0</ele></trkpt><trkpt lat="46.72366" lon="22.806358"><ele>1149.0</ele></trkpt><trkpt lat="46.723259" lon="22.806381"><ele>1145.0</ele></trkpt><trkpt lat="46.723148" lon="22.806545"><ele>1142.0</ele></trkpt><trkpt lat="46.723053" lon="22.80658"><ele>1141.0</ele></trkpt><trkpt lat="46.722805" lon="22.806583"><ele>1138.0</ele></trkpt><trkpt lat="46.722626" lon="22.806662"><ele>1136.0</ele></trkpt><trkpt lat="46.722488" lon="22.806618"><ele>1135.0</ele></trkpt><trkpt lat="46.722408" lon="22.806774"><ele>1134.0</ele></trkpt><trkpt lat="46.722126" lon="22.806742"><ele>1132.0</ele></trkpt><trkpt lat="46.722038" lon="22.806818"><ele>1132.0</ele></trkpt><trkpt lat="46.722054" lon="22.807001"><ele>1132.0</ele></trkpt><trkpt lat="46.721806" lon="22.806944"><ele>1131.0</ele></trkpt><trkpt lat="46.721645" lon="22.806776"><ele>1130.0</ele></trkpt><trkpt lat="46.721481" lon="22.806858"><ele>1130.0</ele></trkpt><trkpt lat="46.721565" lon="22.806929"><ele>1130.0</ele></trkpt><trkpt lat="46.721527" lon="22.807035"><ele>1130.0</ele></trkpt><trkpt lat="46.721577" lon="22.806984"><ele>1130.0</ele></trkpt><trkpt lat="46.72155" lon="22.806875"><ele>1130.0</ele></trkpt><trkpt lat="46.721161" lon="22.806982"><ele>1129.0</ele></trkpt><trkpt lat="46.720978" lon="22.806906"><ele>1128.0</ele></trkpt><trkpt lat="46.720879" lon="22.806934"><ele>1128.0</ele></trkpt><trkpt lat="46.720722" lon="22.807129"><ele>1127.0</ele></trkpt><trkpt lat="46.720715" lon="22.807426"><ele>1127.0</ele></trkpt><trkpt lat="46.720581" lon="22.807812"><ele>1125.0</ele></trkpt><trkpt lat="46.720535" lon="22.808479"><ele>1124.0</ele></trkpt><trkpt lat="46.720345" lon="22.808577"><ele>1123.0</ele></trkpt><trkpt lat="46.71973" lon="22.808577"><ele>1121.0</ele></trkpt><trkpt lat="46.719395" lon="22.808729"><ele>1120.0</ele></trkpt><trkpt lat="46.719109" lon="22.808924"><ele>1119.0</ele></trkpt><trkpt lat="46.718513" lon="22.809832"><ele>1117.0</ele></trkpt><trkpt lat="46.718018" lon="22.810104"><ele>1116.0</ele></trkpt><trkpt lat="46.717735" lon="22.810415"><ele>1115.0</ele></trkpt><trkpt lat="46.717407" lon="22.810444"><ele>1115.0</ele></trkpt><trkpt lat="46.717087" lon="22.810747"><ele>1115.0</ele></trkpt><trkpt lat="46.716728" lon="22.810823"><ele>1114.0</ele></trkpt><trkpt lat="46.716671" lon="22.81093"><ele>1114.0</ele></trkpt><trkpt lat="46.71653" lon="22.810982"><ele>1113.0</ele></trkpt><trkpt lat="46.716309" lon="22.810986"><ele>1113.0</ele></trkpt><trkpt lat="46.715591" lon="22.811731"><ele>1112.0</ele></trkpt><trkpt lat="46.715405" lon="22.812305"><ele>1111.0</ele></trkpt><trkpt lat="46.71505" lon="22.812067"><ele>1111.0</ele></trkpt><trkpt lat="46.715107" lon="22.812216"><ele>1111.0</ele></trkpt><trkpt lat="46.715061" lon="22.812229"><ele>1111.0</ele></trkpt><trkpt lat="46.714745" lon="22.811762"><ele>1111.0</ele></trkpt><trkpt lat="46.714779" lon="22.811815"><ele>1111.0</ele></trkpt><trkpt lat="46.714188" lon="22.811911"><ele>1110.0</ele></trkpt><trkpt lat="46.714016" lon="22.812014"><ele>1110.0</ele></trkpt><trkpt lat="46.714016" lon="22.812277"><ele>1109.0</ele></trkpt><trkpt lat="46.713921" lon="22.81234"><ele>1109.0</ele></trkpt><trkpt lat="46.713882" lon="22.812296"><ele>1108.0</ele></trkpt><trkpt lat="46.71389" lon="22.812445"><ele>1108.0</ele></trkpt><trkpt lat="46.713783" lon="22.812742"><ele>1106.0</ele></trkpt><trkpt lat="46.713856" lon="22.812935"><ele>1105.0</ele></trkpt><trkpt lat="46.713585" lon="22.813438"><ele>1103.0</ele></trkpt><trkpt lat="46.713509" lon="22.813913"><ele>1100.0</ele></trkpt><trkpt lat="46.713558" lon="22.814127"><ele>1099.0</ele></trkpt><trkpt lat="46.713448" lon="22.814285"><ele>1098.0</ele></trkpt><trkpt lat="46.713444" lon="22.814585"><ele>1097.0</ele></trkpt><trkpt lat="46.71368" lon="22.815176"><ele>1095.0</ele></trkpt><trkpt lat="46.713718" lon="22.815474"><ele>1094.0</ele></trkpt><trkpt lat="46.713726" lon="22.816065"><ele>1092.0</ele></trkpt><trkpt lat="46.713596" lon="22.816545"><ele>1090.0</ele></trkpt><trkpt lat="46.713596" lon="22.816814"><ele>1089.0</ele></trkpt><trkpt lat="46.713223" lon="22.817621"><ele>1084.0</ele></trkpt><trkpt lat="46.713154" lon="22.818007"><ele>1082.0</ele></trkpt><trkpt lat="46.712677" lon="22.818771"><ele>1080.0</ele></trkpt><trkpt lat="46.712551" lon="22.819366"><ele>1079.0</ele></trkpt><trkpt lat="46.712318" lon="22.819626"><ele>1078.0</ele></trkpt><trkpt lat="46.712437" lon="22.819742"><ele>1077.0</ele></trkpt><trkpt lat="46.712276" lon="22.819811"><ele>1076.0</ele></trkpt><trkpt lat="46.71209" lon="22.820171"><ele>1074.0</ele></trkpt><trkpt lat="46.711914" lon="22.820311"><ele>1072.0</ele></trkpt><trkpt lat="46.711884" lon="22.820446"><ele>1072.0</ele></trkpt><trkpt lat="46.711876" lon="22.820724"><ele>1071.0</ele></trkpt><trkpt lat="46.712074" lon="22.821453"><ele>1069.0</ele></trkpt><trkpt lat="46.712177" lon="22.821392"><ele>1068.0</ele></trkpt><trkpt lat="46.712254" lon="22.821424"><ele>1068.0</ele></trkpt><trkpt lat="46.712463" lon="22.821787"><ele>1068.0</ele></trkpt><trkpt lat="46.71254" lon="22.821707"><ele>1068.0</ele></trkpt><trkpt lat="46.712463" lon="22.821592"><ele>1068.0</ele></trkpt><trkpt lat="46.712467" lon="22.821375"><ele>1068.0</ele></trkpt><trkpt lat="46.712326" lon="22.821459"><ele>1068.0</ele></trkpt><trkpt lat="46.712246" lon="22.821405"><ele>1068.0</ele></trkpt><trkpt lat="46.712193" lon="22.821543"><ele>1068.0</ele></trkpt><trkpt lat="46.712315" lon="22.821856"><ele>1068.0</ele></trkpt><trkpt lat="46.712337" lon="22.822226"><ele>1068.0</ele></trkpt><trkpt lat="46.712292" lon="22.822525"><ele>1068.0</ele></trkpt><trkpt lat="46.712185" lon="22.822748"><ele>1068.0</ele></trkpt><trkpt lat="46.712017" lon="22.822905"><ele>1068.0</ele></trkpt><trkpt lat="46.711815" lon="22.822975"><ele>1068.0</ele></trkpt><trkpt lat="46.711655" lon="22.822975"><ele>1067.0</ele></trkpt><trkpt lat="46.711521" lon="22.82288"><ele>1067.0</ele></trkpt><trkpt lat="46.711311" lon="22.822939"><ele>1067.0</ele></trkpt><trkpt lat="46.710808" lon="22.82349"><ele>1065.0</ele></trkpt><trkpt lat="46.710571" lon="22.824574"><ele>1060.0</ele></trkpt><trkpt lat="46.710693" lon="22.826286"><ele>1052.0</ele></trkpt><trkpt lat="46.710449" lon="22.826586"><ele>1051.0</ele></trkpt><trkpt lat="46.71056" lon="22.827152"><ele>1049.0</ele></trkpt><trkpt lat="46.71051" lon="22.828066"><ele>1045.0</ele></trkpt><trkpt lat="46.710697" lon="22.829098"><ele>1040.0</ele></trkpt><trkpt lat="46.710602" lon="22.829176"><ele>1039.0</ele></trkpt><trkpt lat="46.710545" lon="22.82938"><ele>1037.0</ele></trkpt><trkpt lat="46.710243" lon="22.829618"><ele>1033.0</ele></trkpt><trkpt lat="46.710167" lon="22.829817"><ele>1031.0</ele></trkpt><trkpt lat="46.709984" lon="22.829931"><ele>1028.0</ele></trkpt><trkpt lat="46.709949" lon="22.830069"><ele>1027.0</ele></trkpt><trkpt lat="46.709827" lon="22.830095"><ele>1026.0</ele></trkpt><trkpt lat="46.70974" lon="22.830256"><ele>1024.0</ele></trkpt><trkpt lat="46.709621" lon="22.830317"><ele>1023.0</ele></trkpt><trkpt lat="46.709503" lon="22.830624"><ele>1021.0</ele></trkpt><trkpt lat="46.709641" lon="22.830729"><ele>1020.0</ele></trkpt><trkpt lat="46.710056" lon="22.830715"><ele>1016.0</ele></trkpt><trkpt lat="46.710094" lon="22.830647"><ele>1016.0</ele></trkpt><trkpt lat="46.710388" lon="22.830563"><ele>1013.0</ele></trkpt><trkpt lat="46.710403" lon="22.830475"><ele>1013.0</ele></trkpt><trkpt lat="46.710503" lon="22.830507"><ele>1012.0</ele></trkpt><trkpt lat="46.710571" lon="22.83041"><ele>1011.0</ele></trkpt><trkpt lat="46.710991" lon="22.830235"><ele>1009.0</ele></trkpt><trkpt lat="46.711048" lon="22.829683"><ele>1009.0</ele></trkpt><trkpt lat="46.710991" lon="22.829491"><ele>1009.0</ele></trkpt><trkpt lat="46.710888" lon="22.829533"><ele>1009.0</ele></trkpt><trkpt lat="46.710751" lon="22.829823"><ele>1009.0</ele></trkpt><trkpt lat="46.710754" lon="22.829977"><ele>1008.0</ele></trkpt><trkpt lat="46.71048" lon="22.830463"><ele>1006.0</ele></trkpt><trkpt lat="46.710152" lon="22.831272"><ele>1002.0</ele></trkpt><trkpt lat="46.70982" lon="22.832199"><ele>998.0</ele></trkpt><trkpt lat="46.709717" lon="22.832874"><ele>994.0</ele></trkpt><trkpt lat="46.709572" lon="22.833172"><ele>993.0</ele></trkpt><trkpt lat="46.709454" lon="22.834049"><ele>989.0</ele></trkpt><trkpt lat="46.709587" lon="22.83452"><ele>989.0</ele></trkpt><trkpt lat="46.709579" lon="22.835102"><ele>988.0</ele></trkpt><trkpt lat="46.709644" lon="22.835478"><ele>988.0</ele></trkpt><trkpt lat="46.709427" lon="22.835899"><ele>988.0</ele></trkpt><trkpt lat="46.709419" lon="22.836145"><ele>987.0</ele></trkpt><trkpt lat="46.708809" lon="22.837196"><ele>982.0</ele></trkpt><trkpt lat="46.708702" lon="22.837561"><ele>981.0</ele></trkpt><trkpt lat="46.708702" lon="22.838085"><ele>978.0</ele></trkpt><trkpt lat="46.708591" lon="22.838182"><ele>976.0</ele></trkpt><trkpt lat="46.708614" lon="22.838245"><ele>976.0</ele></trkpt><trkpt lat="46.708321" lon="22.83872"><ele>972.0</ele></trkpt><trkpt lat="46.708031" lon="22.839462"><ele>968.0</ele></trkpt><trkpt lat="46.707767" lon="22.839409"><ele>967.0</ele></trkpt><trkpt lat="46.707172" lon="22.840073"><ele>965.0</ele></trkpt><trkpt lat="46.707108" lon="22.840643"><ele>964.0</ele></trkpt><trkpt lat="46.70713" lon="22.840715"><ele>964.0</ele></trkpt><trkpt lat="46.707218" lon="22.840721"><ele>964.0</ele></trkpt><trkpt lat="46.707199" lon="22.840811"><ele>964.0</ele></trkpt></trkseg></trk></gpx>
