<?xml version="1.0" encoding="UTF-8"?><gpx creator="Wikiloc - https://www.wikiloc.com" version="1.1" xmlns="http://www.topografix.com/GPX/1/1" xmlns:xsi="http://www.w3.org/2001/XMLSchema-instance" xsi:schemaLocation="http://www.topografix.com/GPX/1/1 http://www.topografix.com/GPX/1/1/gpx.xsd"><metadata><name>Wikiloc - Poiana pelegii-lacul bucura</name><author><name>Dan Marinel</name><link href="https://www.wikiloc.com/wikiloc/user.do?id=6238801"><text>Dan Marinel on Wikiloc</text></link></author><link href="https://www.wikiloc.com/hiking-trails/poiana-pelegii-lacul-bucura-53536190"><text>Poiana pelegii-lacul bucura on Wikiloc</text></link><time>2020-07-24T11:44:38Z</time></metadata><trk><name>Poiana pelegii-lacul bucura - Wikiloc</name><cmt></cmt><desc></desc><trkseg><trkpt lat="45.338177" lon="22.893611"><ele>1606.062</ele><time>2020-07-24T07:11:28Z</time></trkpt><trkpt lat="45.338143" lon="22.893563"><ele>1603.183</ele><time>2020-07-24T07:11:53Z</time></trkpt><trkpt lat="45.338184" lon="22.893635"><ele>1603.111</ele><time>2020-07-24T07:13:33Z</time></trkpt><trkpt lat="45.338179" lon="22.893552"><ele>1603.008</ele><time>2020-07-24T07:14:03Z</time></trkpt><trkpt lat="45.338153" lon="22.893610"><ele>1603.021</ele><time>2020-07-24T07:14:33Z</time></trkpt><trkpt lat="45.338187" lon="22.893545"><ele>1602.649</ele><time>2020-07-24T07:16:10Z</time></trkpt><trkpt lat="45.338101" lon="22.893657"><ele>1603.091</ele><time>2020-07-24T07:17:51Z</time></trkpt><trkpt lat="45.338146" lon="22.893635"><ele>1602.979</ele><time>2020-07-24T07:18:00Z</time></trkpt><trkpt lat="45.338187" lon="22.893678"><ele>1602.792</ele><time>2020-07-24T07:19:23Z</time></trkpt><trkpt lat="45.338212" lon="22.893743"><ele>1603.457</ele><time>2020-07-24T07:19:28Z</time></trkpt><trkpt lat="45.338247" lon="22.893702"><ele>1604.665</ele><time>2020-07-24T07:19:48Z</time></trkpt><trkpt lat="45.338260" lon="22.893768"><ele>1605.376</ele><time>2020-07-24T07:20:04Z</time></trkpt><trkpt lat="45.338251" lon="22.893846"><ele>1605.937</ele><time>2020-07-24T07:20:09Z</time></trkpt><trkpt lat="45.338256" lon="22.893921"><ele>1606.849</ele><time>2020-07-24T07:20:18Z</time></trkpt><trkpt lat="45.338287" lon="22.893969"><ele>1608.013</ele><time>2020-07-24T07:20:25Z</time></trkpt><trkpt lat="45.338287" lon="22.894088"><ele>1608.308</ele><time>2020-07-24T07:21:31Z</time></trkpt><trkpt lat="45.342395" lon="22.890849"><ele>1608.188</ele><time>2020-07-24T07:41:59Z</time></trkpt><trkpt lat="45.342493" lon="22.890844"><ele>1609.376</ele><time>2020-07-24T07:42:24Z</time></trkpt><trkpt lat="45.342540" lon="22.890836"><ele>1609.368</ele><time>2020-07-24T07:42:35Z</time></trkpt><trkpt lat="45.342590" lon="22.890840"><ele>1610.316</ele><time>2020-07-24T07:42:46Z</time></trkpt><trkpt lat="45.342631" lon="22.890771"><ele>1610.359</ele><time>2020-07-24T07:42:53Z</time></trkpt><trkpt lat="45.342655" lon="22.890653"><ele>1611.184</ele><time>2020-07-24T07:43:12Z</time></trkpt><trkpt lat="45.342660" lon="22.890537"><ele>1610.842</ele><time>2020-07-24T07:43:29Z</time></trkpt><trkpt lat="45.342673" lon="22.890471"><ele>1610.853</ele><time>2020-07-24T07:43:59Z</time></trkpt><trkpt lat="45.342688" lon="22.890402"><ele>1611.933</ele><time>2020-07-24T07:44:11Z</time></trkpt><trkpt lat="45.342681" lon="22.890331"><ele>1613.023</ele><time>2020-07-24T07:44:35Z</time></trkpt><trkpt lat="45.342631" lon="22.890338"><ele>1612.915</ele><time>2020-07-24T07:44:45Z</time></trkpt><trkpt lat="45.342615" lon="22.890254"><ele>1612.508</ele><time>2020-07-24T07:45:04Z</time></trkpt><trkpt lat="45.342634" lon="22.890196"><ele>1612.768</ele><time>2020-07-24T07:45:20Z</time></trkpt><trkpt lat="45.342647" lon="22.890081"><ele>1613.986</ele><time>2020-07-24T07:45:49Z</time></trkpt><trkpt lat="45.342674" lon="22.890030"><ele>1614.498</ele><time>2020-07-24T07:45:58Z</time></trkpt><trkpt lat="45.342647" lon="22.889761"><ele>1616.276</ele><time>2020-07-24T07:46:58Z</time></trkpt><trkpt lat="45.342661" lon="22.889696"><ele>1617.179</ele><time>2020-07-24T07:47:21Z</time></trkpt><trkpt lat="45.342668" lon="22.889632"><ele>1617.544</ele><time>2020-07-24T07:47:30Z</time></trkpt><trkpt lat="45.342712" lon="22.889583"><ele>1617.962</ele><time>2020-07-24T07:47:41Z</time></trkpt><trkpt lat="45.342709" lon="22.889514"><ele>1618.833</ele><time>2020-07-24T07:47:51Z</time></trkpt><trkpt lat="45.342687" lon="22.889438"><ele>1619.059</ele><time>2020-07-24T07:47:57Z</time></trkpt><trkpt lat="45.342717" lon="22.889372"><ele>1619.203</ele><time>2020-07-24T07:48:01Z</time></trkpt><trkpt lat="45.342732" lon="22.889308"><ele>1620.023</ele><time>2020-07-24T07:48:08Z</time></trkpt><trkpt lat="45.342749" lon="22.889249"><ele>1621.508</ele><time>2020-07-24T07:48:21Z</time></trkpt><trkpt lat="45.342724" lon="22.889182"><ele>1622.120</ele><time>2020-07-24T07:48:29Z</time></trkpt><trkpt lat="45.342736" lon="22.889111"><ele>1622.898</ele><time>2020-07-24T07:48:35Z</time></trkpt><trkpt lat="45.342742" lon="22.889045"><ele>1623.910</ele><time>2020-07-24T07:48:48Z</time></trkpt><trkpt lat="45.342715" lon="22.888987"><ele>1624.518</ele><time>2020-07-24T07:48:56Z</time></trkpt><trkpt lat="45.342730" lon="22.888920"><ele>1625.311</ele><time>2020-07-24T07:49:03Z</time></trkpt><trkpt lat="45.342775" lon="22.888896"><ele>1626.146</ele><time>2020-07-24T07:49:13Z</time></trkpt><trkpt lat="45.342813" lon="22.888824"><ele>1626.574</ele><time>2020-07-24T07:49:17Z</time></trkpt><trkpt lat="45.342810" lon="22.888750"><ele>1626.935</ele><time>2020-07-24T07:49:24Z</time></trkpt><trkpt lat="45.342851" lon="22.888699"><ele>1628.262</ele><time>2020-07-24T07:49:37Z</time></trkpt><trkpt lat="45.342897" lon="22.888658"><ele>1629.283</ele><time>2020-07-24T07:49:49Z</time></trkpt><trkpt lat="45.342940" lon="22.888628"><ele>1629.811</ele><time>2020-07-24T07:49:54Z</time></trkpt><trkpt lat="45.342954" lon="22.888562"><ele>1630.208</ele><time>2020-07-24T07:50:00Z</time></trkpt><trkpt lat="45.342974" lon="22.888496"><ele>1630.781</ele><time>2020-07-24T07:50:07Z</time></trkpt><trkpt lat="45.343027" lon="22.888485"><ele>1631.439</ele><time>2020-07-24T07:50:15Z</time></trkpt><trkpt lat="45.343040" lon="22.888400"><ele>1632.041</ele><time>2020-07-24T07:50:29Z</time></trkpt><trkpt lat="45.343051" lon="22.888334"><ele>1632.229</ele><time>2020-07-24T07:50:38Z</time></trkpt><trkpt lat="45.343067" lon="22.888271"><ele>1632.552</ele><time>2020-07-24T07:50:42Z</time></trkpt><trkpt lat="45.343108" lon="22.888193"><ele>1633.867</ele><time>2020-07-24T07:50:54Z</time></trkpt><trkpt lat="45.343140" lon="22.888148"><ele>1634.175</ele><time>2020-07-24T07:50:59Z</time></trkpt><trkpt lat="45.343186" lon="22.888128"><ele>1634.936</ele><time>2020-07-24T07:51:09Z</time></trkpt><trkpt lat="45.343226" lon="22.888092"><ele>1635.417</ele><time>2020-07-24T07:51:15Z</time></trkpt><trkpt lat="45.343266" lon="22.888054"><ele>1636.187</ele><time>2020-07-24T07:51:23Z</time></trkpt><trkpt lat="45.343308" lon="22.888026"><ele>1636.615</ele><time>2020-07-24T07:51:32Z</time></trkpt><trkpt lat="45.343355" lon="22.887975"><ele>1637.008</ele><time>2020-07-24T07:51:39Z</time></trkpt><trkpt lat="45.343379" lon="22.887918"><ele>1637.246</ele><time>2020-07-24T07:51:42Z</time></trkpt><trkpt lat="45.343398" lon="22.887854"><ele>1637.394</ele><time>2020-07-24T07:51:49Z</time></trkpt><trkpt lat="45.343440" lon="22.887823"><ele>1637.976</ele><time>2020-07-24T07:51:58Z</time></trkpt><trkpt lat="45.343479" lon="22.887772"><ele>1638.224</ele><time>2020-07-24T07:52:02Z</time></trkpt><trkpt lat="45.343494" lon="22.887708"><ele>1638.887</ele><time>2020-07-24T07:52:09Z</time></trkpt><trkpt lat="45.343532" lon="22.887668"><ele>1639.782</ele><time>2020-07-24T07:52:23Z</time></trkpt><trkpt lat="45.343622" lon="22.887594"><ele>1641.310</ele><time>2020-07-24T07:52:40Z</time></trkpt><trkpt lat="45.343667" lon="22.887586"><ele>1641.721</ele><time>2020-07-24T07:52:47Z</time></trkpt><trkpt lat="45.343708" lon="22.887550"><ele>1642.119</ele><time>2020-07-24T07:52:54Z</time></trkpt><trkpt lat="45.343721" lon="22.887479"><ele>1642.309</ele><time>2020-07-24T07:52:58Z</time></trkpt><trkpt lat="45.343759" lon="22.887444"><ele>1643.519</ele><time>2020-07-24T07:53:13Z</time></trkpt><trkpt lat="45.343834" lon="22.887352"><ele>1644.608</ele><time>2020-07-24T07:53:27Z</time></trkpt><trkpt lat="45.343854" lon="22.887282"><ele>1644.776</ele><time>2020-07-24T07:53:30Z</time></trkpt><trkpt lat="45.343830" lon="22.887188"><ele>1644.784</ele><time>2020-07-24T07:53:36Z</time></trkpt><trkpt lat="45.343891" lon="22.887096"><ele>1645.466</ele><time>2020-07-24T07:54:27Z</time></trkpt><trkpt lat="45.343901" lon="22.887020"><ele>1645.684</ele><time>2020-07-24T07:54:32Z</time></trkpt><trkpt lat="45.343978" lon="22.886937"><ele>1648.547</ele><time>2020-07-24T07:55:10Z</time></trkpt><trkpt lat="45.344037" lon="22.886838"><ele>1650.042</ele><time>2020-07-24T07:55:29Z</time></trkpt><trkpt lat="45.344047" lon="22.886765"><ele>1650.760</ele><time>2020-07-24T07:55:57Z</time></trkpt><trkpt lat="45.344136" lon="22.886648"><ele>1651.811</ele><time>2020-07-24T07:56:14Z</time></trkpt><trkpt lat="45.344168" lon="22.886528"><ele>1652.696</ele><time>2020-07-24T07:56:26Z</time></trkpt><trkpt lat="45.344209" lon="22.886475"><ele>1652.931</ele><time>2020-07-24T07:56:33Z</time></trkpt><trkpt lat="45.344235" lon="22.886417"><ele>1653.124</ele><time>2020-07-24T07:56:37Z</time></trkpt><trkpt lat="45.344259" lon="22.886347"><ele>1654.708</ele><time>2020-07-24T07:57:01Z</time></trkpt><trkpt lat="45.344300" lon="22.886290"><ele>1656.294</ele><time>2020-07-24T07:57:14Z</time></trkpt><trkpt lat="45.344347" lon="22.886288"><ele>1657.282</ele><time>2020-07-24T07:57:25Z</time></trkpt><trkpt lat="45.344362" lon="22.886216"><ele>1658.364</ele><time>2020-07-24T07:57:36Z</time></trkpt><trkpt lat="45.344415" lon="22.886173"><ele>1660.042</ele><time>2020-07-24T07:57:51Z</time></trkpt><trkpt lat="45.344526" lon="22.886088"><ele>1661.685</ele><time>2020-07-24T07:58:14Z</time></trkpt><trkpt lat="45.344564" lon="22.886045"><ele>1661.810</ele><time>2020-07-24T07:58:18Z</time></trkpt><trkpt lat="45.344605" lon="22.885939"><ele>1662.188</ele><time>2020-07-24T07:58:30Z</time></trkpt><trkpt lat="45.344608" lon="22.885869"><ele>1662.099</ele><time>2020-07-24T07:58:36Z</time></trkpt><trkpt lat="45.344601" lon="22.885943"><ele>1663.086</ele><time>2020-07-24T07:59:10Z</time></trkpt><trkpt lat="45.344670" lon="22.885863"><ele>1662.760</ele><time>2020-07-24T08:00:10Z</time></trkpt><trkpt lat="45.344584" lon="22.885919"><ele>1662.926</ele><time>2020-07-24T08:00:28Z</time></trkpt><trkpt lat="45.345447" lon="22.885133"><ele>1681.108</ele><time>2020-07-24T08:12:34Z</time></trkpt><trkpt lat="45.345506" lon="22.885142"><ele>1683.533</ele><time>2020-07-24T08:12:54Z</time></trkpt><trkpt lat="45.345539" lon="22.885097"><ele>1683.821</ele><time>2020-07-24T08:13:00Z</time></trkpt><trkpt lat="45.345579" lon="22.885067"><ele>1683.613</ele><time>2020-07-24T08:13:06Z</time></trkpt><trkpt lat="45.345772" lon="22.884835"><ele>1690.241</ele><time>2020-07-24T08:15:13Z</time></trkpt><trkpt lat="45.345819" lon="22.884777"><ele>1690.844</ele><time>2020-07-24T08:15:22Z</time></trkpt><trkpt lat="45.345861" lon="22.884729"><ele>1692.429</ele><time>2020-07-24T08:15:40Z</time></trkpt><trkpt lat="45.345903" lon="22.884686"><ele>1692.937</ele><time>2020-07-24T08:15:49Z</time></trkpt><trkpt lat="45.345960" lon="22.884635"><ele>1694.088</ele><time>2020-07-24T08:15:59Z</time></trkpt><trkpt lat="45.345989" lon="22.884583"><ele>1695.321</ele><time>2020-07-24T08:16:09Z</time></trkpt><trkpt lat="45.346417" lon="22.884428"><ele>1707.041</ele><time>2020-07-24T08:26:44Z</time></trkpt><trkpt lat="45.346463" lon="22.884395"><ele>1708.005</ele><time>2020-07-24T08:26:52Z</time></trkpt><trkpt lat="45.346487" lon="22.884333"><ele>1709.608</ele><time>2020-07-24T08:27:01Z</time></trkpt><trkpt lat="45.346501" lon="22.884264"><ele>1712.287</ele><time>2020-07-24T08:27:13Z</time></trkpt><trkpt lat="45.346554" lon="22.884228"><ele>1713.535</ele><time>2020-07-24T08:27:22Z</time></trkpt><trkpt lat="45.346576" lon="22.884166"><ele>1713.647</ele><time>2020-07-24T08:27:29Z</time></trkpt><trkpt lat="45.346632" lon="22.884174"><ele>1714.495</ele><time>2020-07-24T08:27:36Z</time></trkpt><trkpt lat="45.346679" lon="22.884181"><ele>1715.968</ele><time>2020-07-24T08:27:52Z</time></trkpt><trkpt lat="45.346713" lon="22.884107"><ele>1717.353</ele><time>2020-07-24T08:28:01Z</time></trkpt><trkpt lat="45.346734" lon="22.884012"><ele>1717.811</ele><time>2020-07-24T08:28:14Z</time></trkpt><trkpt lat="45.346765" lon="22.883963"><ele>1718.912</ele><time>2020-07-24T08:28:21Z</time></trkpt><trkpt lat="45.346785" lon="22.883867"><ele>1720.391</ele><time>2020-07-24T08:28:35Z</time></trkpt><trkpt lat="45.346895" lon="22.883728"><ele>1724.281</ele><time>2020-07-24T08:29:08Z</time></trkpt><trkpt lat="45.346934" lon="22.883693"><ele>1724.419</ele><time>2020-07-24T08:29:14Z</time></trkpt><trkpt lat="45.346910" lon="22.883638"><ele>1724.908</ele><time>2020-07-24T08:29:33Z</time></trkpt><trkpt lat="45.346978" lon="22.883619"><ele>1725.944</ele><time>2020-07-24T08:30:00Z</time></trkpt><trkpt lat="45.347129" lon="22.883687"><ele>1733.962</ele><time>2020-07-24T08:31:29Z</time></trkpt><trkpt lat="45.347197" lon="22.883721"><ele>1735.744</ele><time>2020-07-24T08:31:50Z</time></trkpt><trkpt lat="45.347375" lon="22.883612"><ele>1740.572</ele><time>2020-07-24T08:33:17Z</time></trkpt><trkpt lat="45.347434" lon="22.883544"><ele>1741.565</ele><time>2020-07-24T08:33:28Z</time></trkpt><trkpt lat="45.347469" lon="22.883494"><ele>1741.930</ele><time>2020-07-24T08:33:36Z</time></trkpt><trkpt lat="45.347537" lon="22.883477"><ele>1742.878</ele><time>2020-07-24T08:33:47Z</time></trkpt><trkpt lat="45.347583" lon="22.883426"><ele>1743.379</ele><time>2020-07-24T08:33:54Z</time></trkpt><trkpt lat="45.347614" lon="22.883373"><ele>1744.156</ele><time>2020-07-24T08:34:05Z</time></trkpt><trkpt lat="45.347663" lon="22.883354"><ele>1745.459</ele><time>2020-07-24T08:34:17Z</time></trkpt><trkpt lat="45.347706" lon="22.883335"><ele>1747.014</ele><time>2020-07-24T08:34:29Z</time></trkpt><trkpt lat="45.347752" lon="22.883357"><ele>1747.908</ele><time>2020-07-24T08:34:37Z</time></trkpt><trkpt lat="45.347799" lon="22.883320"><ele>1748.710</ele><time>2020-07-24T08:34:45Z</time></trkpt><trkpt lat="45.347836" lon="22.883276"><ele>1748.848</ele><time>2020-07-24T08:34:51Z</time></trkpt><trkpt lat="45.347883" lon="22.883219"><ele>1749.050</ele><time>2020-07-24T08:35:00Z</time></trkpt><trkpt lat="45.347917" lon="22.883169"><ele>1748.638</ele><time>2020-07-24T08:35:07Z</time></trkpt><trkpt lat="45.347952" lon="22.883113"><ele>1748.531</ele><time>2020-07-24T08:35:17Z</time></trkpt><trkpt lat="45.347992" lon="22.883068"><ele>1748.186</ele><time>2020-07-24T08:35:25Z</time></trkpt><trkpt lat="45.348073" lon="22.883046"><ele>1749.914</ele><time>2020-07-24T08:35:49Z</time></trkpt><trkpt lat="45.348147" lon="22.883037"><ele>1751.295</ele><time>2020-07-24T08:36:08Z</time></trkpt><trkpt lat="45.348220" lon="22.883005"><ele>1751.865</ele><time>2020-07-24T08:36:27Z</time></trkpt><trkpt lat="45.348256" lon="22.882961"><ele>1751.868</ele><time>2020-07-24T08:36:33Z</time></trkpt><trkpt lat="45.348290" lon="22.882916"><ele>1751.914</ele><time>2020-07-24T08:36:40Z</time></trkpt><trkpt lat="45.348349" lon="22.882890"><ele>1753.508</ele><time>2020-07-24T08:36:55Z</time></trkpt><trkpt lat="45.348396" lon="22.882867"><ele>1753.421</ele><time>2020-07-24T08:37:02Z</time></trkpt><trkpt lat="45.348450" lon="22.882867"><ele>1753.449</ele><time>2020-07-24T08:37:10Z</time></trkpt><trkpt lat="45.348492" lon="22.882894"><ele>1754.971</ele><time>2020-07-24T08:37:21Z</time></trkpt><trkpt lat="45.348538" lon="22.882884"><ele>1755.319</ele><time>2020-07-24T08:37:35Z</time></trkpt><trkpt lat="45.348854" lon="22.882611"><ele>1754.462</ele><time>2020-07-24T08:40:28Z</time></trkpt><trkpt lat="45.349058" lon="22.882734"><ele>1757.957</ele><time>2020-07-24T08:41:29Z</time></trkpt><trkpt lat="45.349151" lon="22.882678"><ele>1759.365</ele><time>2020-07-24T08:42:40Z</time></trkpt><trkpt lat="45.349200" lon="22.882667"><ele>1760.086</ele><time>2020-07-24T08:42:46Z</time></trkpt><trkpt lat="45.349241" lon="22.882606"><ele>1760.527</ele><time>2020-07-24T08:42:58Z</time></trkpt><trkpt lat="45.349332" lon="22.882523"><ele>1760.468</ele><time>2020-07-24T08:43:22Z</time></trkpt><trkpt lat="45.349381" lon="22.882515"><ele>1760.614</ele><time>2020-07-24T08:43:31Z</time></trkpt><trkpt lat="45.349414" lon="22.882470"><ele>1760.508</ele><time>2020-07-24T08:43:37Z</time></trkpt><trkpt lat="45.349502" lon="22.882434"><ele>1759.597</ele><time>2020-07-24T08:43:51Z</time></trkpt><trkpt lat="45.349548" lon="22.882446"><ele>1759.455</ele><time>2020-07-24T08:43:59Z</time></trkpt><trkpt lat="45.349597" lon="22.882438"><ele>1759.637</ele><time>2020-07-24T08:44:05Z</time></trkpt><trkpt lat="45.349611" lon="22.882371"><ele>1759.515</ele><time>2020-07-24T08:44:13Z</time></trkpt><trkpt lat="45.349654" lon="22.882334"><ele>1759.698</ele><time>2020-07-24T08:44:17Z</time></trkpt><trkpt lat="45.349697" lon="22.882293"><ele>1759.053</ele><time>2020-07-24T08:44:28Z</time></trkpt><trkpt lat="45.349746" lon="22.882311"><ele>1759.661</ele><time>2020-07-24T08:44:42Z</time></trkpt><trkpt lat="45.349789" lon="22.882287"><ele>1760.312</ele><time>2020-07-24T08:44:50Z</time></trkpt><trkpt lat="45.349837" lon="22.882297"><ele>1761.053</ele><time>2020-07-24T08:44:58Z</time></trkpt><trkpt lat="45.349883" lon="22.882328"><ele>1762.504</ele><time>2020-07-24T08:45:08Z</time></trkpt><trkpt lat="45.349929" lon="22.882312"><ele>1763.514</ele><time>2020-07-24T08:45:15Z</time></trkpt><trkpt lat="45.349976" lon="22.882280"><ele>1764.408</ele><time>2020-07-24T08:45:23Z</time></trkpt><trkpt lat="45.350059" lon="22.882268"><ele>1766.320</ele><time>2020-07-24T08:45:42Z</time></trkpt><trkpt lat="45.350127" lon="22.882294"><ele>1767.128</ele><time>2020-07-24T08:46:10Z</time></trkpt><trkpt lat="45.350176" lon="22.882293"><ele>1768.120</ele><time>2020-07-24T08:46:18Z</time></trkpt><trkpt lat="45.350223" lon="22.882316"><ele>1769.068</ele><time>2020-07-24T08:46:26Z</time></trkpt><trkpt lat="45.350279" lon="22.882328"><ele>1770.221</ele><time>2020-07-24T08:46:35Z</time></trkpt><trkpt lat="45.350325" lon="22.882337"><ele>1771.016</ele><time>2020-07-24T08:46:42Z</time></trkpt><trkpt lat="45.350371" lon="22.882330"><ele>1771.644</ele><time>2020-07-24T08:46:48Z</time></trkpt><trkpt lat="45.350418" lon="22.882289"><ele>1772.435</ele><time>2020-07-24T08:47:00Z</time></trkpt><trkpt lat="45.350463" lon="22.882294"><ele>1773.426</ele><time>2020-07-24T08:47:16Z</time></trkpt><trkpt lat="45.350487" lon="22.882354"><ele>1775.047</ele><time>2020-07-24T08:47:34Z</time></trkpt><trkpt lat="45.350498" lon="22.882452"><ele>1775.511</ele><time>2020-07-24T08:47:52Z</time></trkpt><trkpt lat="45.350573" lon="22.882462"><ele>1777.008</ele><time>2020-07-24T08:48:08Z</time></trkpt><trkpt lat="45.350608" lon="22.882509"><ele>1778.157</ele><time>2020-07-24T08:48:20Z</time></trkpt><trkpt lat="45.350663" lon="22.882506"><ele>1779.045</ele><time>2020-07-24T08:48:31Z</time></trkpt><trkpt lat="45.350727" lon="22.882484"><ele>1780.747</ele><time>2020-07-24T08:48:48Z</time></trkpt><trkpt lat="45.350770" lon="22.882462"><ele>1781.635</ele><time>2020-07-24T08:48:59Z</time></trkpt><trkpt lat="45.350816" lon="22.882465"><ele>1783.078</ele><time>2020-07-24T08:49:13Z</time></trkpt><trkpt lat="45.350864" lon="22.882488"><ele>1784.243</ele><time>2020-07-24T08:49:23Z</time></trkpt><trkpt lat="45.350902" lon="22.882451"><ele>1785.381</ele><time>2020-07-24T08:49:34Z</time></trkpt><trkpt lat="45.350961" lon="22.882431"><ele>1786.122</ele><time>2020-07-24T08:55:06Z</time></trkpt><trkpt lat="45.350996" lon="22.882387"><ele>1787.791</ele><time>2020-07-24T08:55:23Z</time></trkpt><trkpt lat="45.351049" lon="22.882303"><ele>1789.081</ele><time>2020-07-24T08:55:39Z</time></trkpt><trkpt lat="45.351097" lon="22.882296"><ele>1790.519</ele><time>2020-07-24T08:55:57Z</time></trkpt><trkpt lat="45.351137" lon="22.882327"><ele>1791.808</ele><time>2020-07-24T08:56:10Z</time></trkpt><trkpt lat="45.351183" lon="22.882346"><ele>1793.394</ele><time>2020-07-24T08:56:22Z</time></trkpt><trkpt lat="45.351251" lon="22.882366"><ele>1794.152</ele><time>2020-07-24T08:56:34Z</time></trkpt><trkpt lat="45.351304" lon="22.882387"><ele>1795.034</ele><time>2020-07-24T08:57:47Z</time></trkpt><trkpt lat="45.351357" lon="22.882363"><ele>1795.592</ele><time>2020-07-24T08:57:56Z</time></trkpt><trkpt lat="45.351407" lon="22.882373"><ele>1796.515</ele><time>2020-07-24T08:58:03Z</time></trkpt><trkpt lat="45.351453" lon="22.882358"><ele>1797.490</ele><time>2020-07-24T08:58:11Z</time></trkpt><trkpt lat="45.351499" lon="22.882365"><ele>1798.548</ele><time>2020-07-24T08:58:18Z</time></trkpt><trkpt lat="45.351545" lon="22.882318"><ele>1799.419</ele><time>2020-07-24T08:58:24Z</time></trkpt><trkpt lat="45.351574" lon="22.882395"><ele>1800.539</ele><time>2020-07-24T08:58:47Z</time></trkpt><trkpt lat="45.351606" lon="22.882441"><ele>1801.201</ele><time>2020-07-24T08:58:54Z</time></trkpt><trkpt lat="45.351647" lon="22.882485"><ele>1803.421</ele><time>2020-07-24T08:59:05Z</time></trkpt><trkpt lat="45.351682" lon="22.882434"><ele>1804.608</ele><time>2020-07-24T08:59:13Z</time></trkpt><trkpt lat="45.351738" lon="22.882406"><ele>1805.518</ele><time>2020-07-24T08:59:21Z</time></trkpt><trkpt lat="45.351832" lon="22.882343"><ele>1807.356</ele><time>2020-07-24T08:59:46Z</time></trkpt><trkpt lat="45.351873" lon="22.882313"><ele>1808.028</ele><time>2020-07-24T08:59:57Z</time></trkpt><trkpt lat="45.351916" lon="22.882279"><ele>1808.416</ele><time>2020-07-24T09:00:02Z</time></trkpt><trkpt lat="45.351967" lon="22.882238"><ele>1808.999</ele><time>2020-07-24T09:00:23Z</time></trkpt><trkpt lat="45.351998" lon="22.882183"><ele>1809.694</ele><time>2020-07-24T09:00:29Z</time></trkpt><trkpt lat="45.352040" lon="22.882159"><ele>1810.982</ele><time>2020-07-24T09:00:43Z</time></trkpt><trkpt lat="45.352088" lon="22.882158"><ele>1813.323</ele><time>2020-07-24T09:01:11Z</time></trkpt><trkpt lat="45.352132" lon="22.882179"><ele>1815.458</ele><time>2020-07-24T09:01:30Z</time></trkpt><trkpt lat="45.352174" lon="22.882151"><ele>1816.952</ele><time>2020-07-24T09:01:41Z</time></trkpt><trkpt lat="45.352219" lon="22.882108"><ele>1817.717</ele><time>2020-07-24T09:01:56Z</time></trkpt><trkpt lat="45.352271" lon="22.882100"><ele>1820.908</ele><time>2020-07-24T09:02:25Z</time></trkpt><trkpt lat="45.352293" lon="22.882031"><ele>1821.930</ele><time>2020-07-24T09:02:34Z</time></trkpt><trkpt lat="45.352335" lon="22.881993"><ele>1824.918</ele><time>2020-07-24T09:03:16Z</time></trkpt><trkpt lat="45.352403" lon="22.881902"><ele>1828.420</ele><time>2020-07-24T09:03:51Z</time></trkpt><trkpt lat="45.352466" lon="22.881816"><ele>1832.348</ele><time>2020-07-24T09:04:46Z</time></trkpt><trkpt lat="45.352616" lon="22.881803"><ele>1839.131</ele><time>2020-07-24T09:05:51Z</time></trkpt><trkpt lat="45.352624" lon="22.881716"><ele>1840.116</ele><time>2020-07-24T09:06:15Z</time></trkpt><trkpt lat="45.352664" lon="22.881677"><ele>1841.144</ele><time>2020-07-24T09:09:47Z</time></trkpt><trkpt lat="45.352691" lon="22.881615"><ele>1841.825</ele><time>2020-07-24T09:09:53Z</time></trkpt><trkpt lat="45.352744" lon="22.881568"><ele>1844.183</ele><time>2020-07-24T09:10:14Z</time></trkpt><trkpt lat="45.352786" lon="22.881527"><ele>1844.525</ele><time>2020-07-24T09:10:22Z</time></trkpt><trkpt lat="45.352829" lon="22.881497"><ele>1845.717</ele><time>2020-07-24T09:10:30Z</time></trkpt><trkpt lat="45.352877" lon="22.881469"><ele>1847.108</ele><time>2020-07-24T09:10:39Z</time></trkpt><trkpt lat="45.352903" lon="22.881410"><ele>1848.213</ele><time>2020-07-24T09:10:47Z</time></trkpt><trkpt lat="45.352938" lon="22.881360"><ele>1849.781</ele><time>2020-07-24T09:11:00Z</time></trkpt><trkpt lat="45.352963" lon="22.881297"><ele>1851.253</ele><time>2020-07-24T09:11:14Z</time></trkpt><trkpt lat="45.352972" lon="22.881214"><ele>1852.961</ele><time>2020-07-24T09:11:31Z</time></trkpt><trkpt lat="45.353002" lon="22.881153"><ele>1854.074</ele><time>2020-07-24T09:11:41Z</time></trkpt><trkpt lat="45.353028" lon="22.881092"><ele>1855.849</ele><time>2020-07-24T09:11:56Z</time></trkpt><trkpt lat="45.353035" lon="22.881027"><ele>1857.567</ele><time>2020-07-24T09:12:06Z</time></trkpt><trkpt lat="45.353059" lon="22.880956"><ele>1859.068</ele><time>2020-07-24T09:12:22Z</time></trkpt><trkpt lat="45.353090" lon="22.880883"><ele>1861.661</ele><time>2020-07-24T09:12:45Z</time></trkpt><trkpt lat="45.353109" lon="22.880825"><ele>1864.221</ele><time>2020-07-24T09:13:03Z</time></trkpt><trkpt lat="45.353164" lon="22.880773"><ele>1867.113</ele><time>2020-07-24T09:13:37Z</time></trkpt><trkpt lat="45.353191" lon="22.880712"><ele>1868.308</ele><time>2020-07-24T09:13:48Z</time></trkpt><trkpt lat="45.353226" lon="22.880668"><ele>1869.531</ele><time>2020-07-24T09:14:05Z</time></trkpt><trkpt lat="45.353260" lon="22.880611"><ele>1870.299</ele><time>2020-07-24T09:14:13Z</time></trkpt><trkpt lat="45.353289" lon="22.880538"><ele>1871.871</ele><time>2020-07-24T09:14:34Z</time></trkpt><trkpt lat="45.353340" lon="22.880464"><ele>1874.329</ele><time>2020-07-24T09:16:09Z</time></trkpt><trkpt lat="45.353392" lon="22.880447"><ele>1875.672</ele><time>2020-07-24T09:16:17Z</time></trkpt><trkpt lat="45.353439" lon="22.880411"><ele>1876.727</ele><time>2020-07-24T09:16:26Z</time></trkpt><trkpt lat="45.353472" lon="22.880366"><ele>1877.045</ele><time>2020-07-24T09:16:35Z</time></trkpt><trkpt lat="45.353505" lon="22.880320"><ele>1878.346</ele><time>2020-07-24T09:16:48Z</time></trkpt><trkpt lat="45.353550" lon="22.880287"><ele>1879.826</ele><time>2020-07-24T09:17:02Z</time></trkpt><trkpt lat="45.353607" lon="22.880281"><ele>1881.347</ele><time>2020-07-24T09:17:19Z</time></trkpt><trkpt lat="45.353652" lon="22.880289"><ele>1882.911</ele><time>2020-07-24T09:17:30Z</time></trkpt><trkpt lat="45.353695" lon="22.880270"><ele>1885.208</ele><time>2020-07-24T09:17:51Z</time></trkpt><trkpt lat="45.353762" lon="22.880236"><ele>1887.897</ele><time>2020-07-24T09:18:11Z</time></trkpt><trkpt lat="45.353805" lon="22.880211"><ele>1889.475</ele><time>2020-07-24T09:18:22Z</time></trkpt><trkpt lat="45.353842" lon="22.880168"><ele>1889.967</ele><time>2020-07-24T09:18:28Z</time></trkpt><trkpt lat="45.353867" lon="22.880112"><ele>1891.165</ele><time>2020-07-24T09:18:56Z</time></trkpt><trkpt lat="45.353871" lon="22.880031"><ele>1892.258</ele><time>2020-07-24T09:19:06Z</time></trkpt><trkpt lat="45.353913" lon="22.879997"><ele>1893.253</ele><time>2020-07-24T09:19:16Z</time></trkpt><trkpt lat="45.353945" lon="22.879937"><ele>1893.961</ele><time>2020-07-24T09:19:25Z</time></trkpt><trkpt lat="45.353969" lon="22.879879"><ele>1894.882</ele><time>2020-07-24T09:19:33Z</time></trkpt><trkpt lat="45.353988" lon="22.879818"><ele>1895.935</ele><time>2020-07-24T09:19:42Z</time></trkpt><trkpt lat="45.354010" lon="22.879750"><ele>1897.086</ele><time>2020-07-24T09:19:52Z</time></trkpt><trkpt lat="45.354023" lon="22.879686"><ele>1897.814</ele><time>2020-07-24T09:20:01Z</time></trkpt><trkpt lat="45.354045" lon="22.879628"><ele>1898.308</ele><time>2020-07-24T09:20:39Z</time></trkpt><trkpt lat="45.354091" lon="22.879625"><ele>1900.618</ele><time>2020-07-24T09:20:56Z</time></trkpt><trkpt lat="45.354138" lon="22.879604"><ele>1902.136</ele><time>2020-07-24T09:21:13Z</time></trkpt><trkpt lat="45.354182" lon="22.879579"><ele>1903.618</ele><time>2020-07-24T09:21:22Z</time></trkpt><trkpt lat="45.354220" lon="22.879535"><ele>1904.336</ele><time>2020-07-24T09:21:29Z</time></trkpt><trkpt lat="45.354262" lon="22.879508"><ele>1905.319</ele><time>2020-07-24T09:21:37Z</time></trkpt><trkpt lat="45.354300" lon="22.879464"><ele>1906.494</ele><time>2020-07-24T09:21:49Z</time></trkpt><trkpt lat="45.354331" lon="22.879408"><ele>1907.612</ele><time>2020-07-24T09:22:05Z</time></trkpt><trkpt lat="45.354368" lon="22.879361"><ele>1909.743</ele><time>2020-07-24T09:22:16Z</time></trkpt><trkpt lat="45.354379" lon="22.879297"><ele>1911.085</ele><time>2020-07-24T09:22:25Z</time></trkpt><trkpt lat="45.354405" lon="22.879245"><ele>1912.189</ele><time>2020-07-24T09:22:34Z</time></trkpt><trkpt lat="45.354435" lon="22.879193"><ele>1913.617</ele><time>2020-07-24T09:22:42Z</time></trkpt><trkpt lat="45.354477" lon="22.879150"><ele>1915.008</ele><time>2020-07-24T09:22:52Z</time></trkpt><trkpt lat="45.354527" lon="22.879136"><ele>1916.583</ele><time>2020-07-24T09:23:05Z</time></trkpt><trkpt lat="45.354565" lon="22.879096"><ele>1917.381</ele><time>2020-07-24T09:23:13Z</time></trkpt><trkpt lat="45.354611" lon="22.879089"><ele>1918.283</ele><time>2020-07-24T09:23:22Z</time></trkpt><trkpt lat="45.354656" lon="22.879062"><ele>1918.671</ele><time>2020-07-24T09:23:30Z</time></trkpt><trkpt lat="45.354685" lon="22.878998"><ele>1919.334</ele><time>2020-07-24T09:23:40Z</time></trkpt><trkpt lat="45.354698" lon="22.878935"><ele>1919.559</ele><time>2020-07-24T09:23:45Z</time></trkpt><trkpt lat="45.354714" lon="22.878862"><ele>1919.497</ele><time>2020-07-24T09:23:53Z</time></trkpt><trkpt lat="45.354754" lon="22.878814"><ele>1919.138</ele><time>2020-07-24T09:23:59Z</time></trkpt><trkpt lat="45.354796" lon="22.878752"><ele>1919.166</ele><time>2020-07-24T09:24:05Z</time></trkpt><trkpt lat="45.354823" lon="22.878694"><ele>1919.229</ele><time>2020-07-24T09:24:23Z</time></trkpt><trkpt lat="45.354842" lon="22.878630"><ele>1919.521</ele><time>2020-07-24T09:24:36Z</time></trkpt><trkpt lat="45.354880" lon="22.878581"><ele>1920.108</ele><time>2020-07-24T09:24:42Z</time></trkpt><trkpt lat="45.354925" lon="22.878543"><ele>1921.841</ele><time>2020-07-24T09:24:52Z</time></trkpt><trkpt lat="45.354950" lon="22.878486"><ele>1922.719</ele><time>2020-07-24T09:25:00Z</time></trkpt><trkpt lat="45.354997" lon="22.878461"><ele>1923.651</ele><time>2020-07-24T09:25:08Z</time></trkpt><trkpt lat="45.355032" lon="22.878420"><ele>1924.299</ele><time>2020-07-24T09:25:13Z</time></trkpt><trkpt lat="45.355080" lon="22.878386"><ele>1924.862</ele><time>2020-07-24T09:25:21Z</time></trkpt><trkpt lat="45.355123" lon="22.878356"><ele>1925.397</ele><time>2020-07-24T09:25:28Z</time></trkpt><trkpt lat="45.355170" lon="22.878338"><ele>1926.145</ele><time>2020-07-24T09:25:39Z</time></trkpt><trkpt lat="45.355220" lon="22.878310"><ele>1926.596</ele><time>2020-07-24T09:25:46Z</time></trkpt><trkpt lat="45.355253" lon="22.878261"><ele>1926.472</ele><time>2020-07-24T09:25:52Z</time></trkpt><trkpt lat="45.355297" lon="22.878239"><ele>1926.413</ele><time>2020-07-24T09:25:57Z</time></trkpt><trkpt lat="45.355339" lon="22.878210"><ele>1926.814</ele><time>2020-07-24T09:26:03Z</time></trkpt><trkpt lat="45.355387" lon="22.878205"><ele>1927.208</ele><time>2020-07-24T09:26:12Z</time></trkpt><trkpt lat="45.355420" lon="22.878161"><ele>1927.262</ele><time>2020-07-24T09:26:18Z</time></trkpt><trkpt lat="45.355454" lon="22.878114"><ele>1927.240</ele><time>2020-07-24T09:26:24Z</time></trkpt><trkpt lat="45.355474" lon="22.878054"><ele>1927.052</ele><time>2020-07-24T09:26:31Z</time></trkpt><trkpt lat="45.355489" lon="22.877994"><ele>1927.490</ele><time>2020-07-24T09:26:37Z</time></trkpt><trkpt lat="45.355562" lon="22.877946"><ele>1926.943</ele><time>2020-07-24T09:26:53Z</time></trkpt><trkpt lat="45.355610" lon="22.877932"><ele>1926.448</ele><time>2020-07-24T09:27:01Z</time></trkpt><trkpt lat="45.355637" lon="22.877878"><ele>1926.186</ele><time>2020-07-24T09:27:06Z</time></trkpt><trkpt lat="45.355661" lon="22.877819"><ele>1926.117</ele><time>2020-07-24T09:27:13Z</time></trkpt><trkpt lat="45.355698" lon="22.877780"><ele>1926.251</ele><time>2020-07-24T09:27:20Z</time></trkpt><trkpt lat="45.355722" lon="22.877723"><ele>1926.201</ele><time>2020-07-24T09:27:41Z</time></trkpt><trkpt lat="45.355762" lon="22.877682"><ele>1926.611</ele><time>2020-07-24T09:27:52Z</time></trkpt><trkpt lat="45.355798" lon="22.877634"><ele>1927.008</ele><time>2020-07-24T09:27:58Z</time></trkpt><trkpt lat="45.355842" lon="22.877606"><ele>1927.670</ele><time>2020-07-24T09:28:07Z</time></trkpt><trkpt lat="45.355887" lon="22.877572"><ele>1927.578</ele><time>2020-07-24T09:28:14Z</time></trkpt><trkpt lat="45.355929" lon="22.877529"><ele>1927.550</ele><time>2020-07-24T09:28:20Z</time></trkpt><trkpt lat="45.355964" lon="22.877487"><ele>1927.418</ele><time>2020-07-24T09:28:24Z</time></trkpt><trkpt lat="45.355988" lon="22.877432"><ele>1927.781</ele><time>2020-07-24T09:28:34Z</time></trkpt><trkpt lat="45.356028" lon="22.877394"><ele>1928.336</ele><time>2020-07-24T09:28:42Z</time></trkpt><trkpt lat="45.356063" lon="22.877337"><ele>1929.234</ele><time>2020-07-24T09:28:49Z</time></trkpt><trkpt lat="45.356101" lon="22.877302"><ele>1930.135</ele><time>2020-07-24T09:28:57Z</time></trkpt><trkpt lat="45.356152" lon="22.877266"><ele>1930.947</ele><time>2020-07-24T09:29:06Z</time></trkpt><trkpt lat="45.356203" lon="22.877292"><ele>1932.129</ele><time>2020-07-24T09:29:29Z</time></trkpt><trkpt lat="45.356256" lon="22.877261"><ele>1934.121</ele><time>2020-07-24T09:29:51Z</time></trkpt><trkpt lat="45.356292" lon="22.877345"><ele>1936.408</ele><time>2020-07-24T09:30:19Z</time></trkpt><trkpt lat="45.356339" lon="22.877331"><ele>1937.169</ele><time>2020-07-24T09:30:29Z</time></trkpt><trkpt lat="45.356401" lon="22.877347"><ele>1939.667</ele><time>2020-07-24T09:30:53Z</time></trkpt><trkpt lat="45.356555" lon="22.877269"><ele>1949.229</ele><time>2020-07-24T09:32:26Z</time></trkpt><trkpt lat="45.356664" lon="22.877285"><ele>1953.897</ele><time>2020-07-24T09:33:15Z</time></trkpt><trkpt lat="45.356750" lon="22.877303"><ele>1955.990</ele><time>2020-07-24T09:33:52Z</time></trkpt><trkpt lat="45.356785" lon="22.877386"><ele>1958.665</ele><time>2020-07-24T09:34:10Z</time></trkpt><trkpt lat="45.356831" lon="22.877411"><ele>1960.273</ele><time>2020-07-24T09:34:22Z</time></trkpt><trkpt lat="45.356874" lon="22.877432"><ele>1961.444</ele><time>2020-07-24T09:34:32Z</time></trkpt><trkpt lat="45.356920" lon="22.877442"><ele>1962.461</ele><time>2020-07-24T09:34:40Z</time></trkpt><trkpt lat="45.356959" lon="22.877404"><ele>1963.321</ele><time>2020-07-24T09:34:48Z</time></trkpt><trkpt lat="45.356995" lon="22.877365"><ele>1964.013</ele><time>2020-07-24T09:34:55Z</time></trkpt><trkpt lat="45.357038" lon="22.877308"><ele>1964.908</ele><time>2020-07-24T09:35:04Z</time></trkpt><trkpt lat="45.357056" lon="22.877234"><ele>1965.971</ele><time>2020-07-24T09:35:15Z</time></trkpt><trkpt lat="45.357062" lon="22.877166"><ele>1966.539</ele><time>2020-07-24T09:35:23Z</time></trkpt><trkpt lat="45.357081" lon="22.877107"><ele>1967.171</ele><time>2020-07-24T09:35:30Z</time></trkpt><trkpt lat="45.357122" lon="22.877075"><ele>1968.029</ele><time>2020-07-24T09:35:57Z</time></trkpt><trkpt lat="45.357182" lon="22.877026"><ele>1968.392</ele><time>2020-07-24T09:39:31Z</time></trkpt><trkpt lat="45.357227" lon="22.876997"><ele>1968.237</ele><time>2020-07-24T09:39:37Z</time></trkpt><trkpt lat="45.357252" lon="22.876937"><ele>1968.935</ele><time>2020-07-24T09:40:45Z</time></trkpt><trkpt lat="45.357315" lon="22.876907"><ele>1968.036</ele><time>2020-07-24T09:40:56Z</time></trkpt><trkpt lat="45.357363" lon="22.876893"><ele>1967.617</ele><time>2020-07-24T09:41:01Z</time></trkpt><trkpt lat="45.357415" lon="22.876910"><ele>1966.787</ele><time>2020-07-24T09:41:12Z</time></trkpt><trkpt lat="45.357463" lon="22.876911"><ele>1965.815</ele><time>2020-07-24T09:41:28Z</time></trkpt><trkpt lat="45.357512" lon="22.876889"><ele>1965.608</ele><time>2020-07-24T09:41:33Z</time></trkpt><trkpt lat="45.357546" lon="22.876847"><ele>1964.766</ele><time>2020-07-24T09:41:42Z</time></trkpt><trkpt lat="45.357592" lon="22.876820"><ele>1963.764</ele><time>2020-07-24T09:41:48Z</time></trkpt><trkpt lat="45.357634" lon="22.876781"><ele>1962.516</ele><time>2020-07-24T09:41:55Z</time></trkpt><trkpt lat="45.357674" lon="22.876748"><ele>1961.644</ele><time>2020-07-24T09:42:00Z</time></trkpt><trkpt lat="45.357696" lon="22.876684"><ele>1960.657</ele><time>2020-07-24T09:42:08Z</time></trkpt><trkpt lat="45.357722" lon="22.876626"><ele>1960.112</ele><time>2020-07-24T09:42:12Z</time></trkpt><trkpt lat="45.357768" lon="22.876600"><ele>1959.830</ele><time>2020-07-24T09:42:19Z</time></trkpt><trkpt lat="45.357792" lon="22.876534"><ele>1960.091</ele><time>2020-07-24T09:42:25Z</time></trkpt><trkpt lat="45.357824" lon="22.876472"><ele>1960.286</ele><time>2020-07-24T09:42:37Z</time></trkpt><trkpt lat="45.357844" lon="22.876410"><ele>1960.160</ele><time>2020-07-24T09:42:43Z</time></trkpt><trkpt lat="45.357848" lon="22.876342"><ele>1960.426</ele><time>2020-07-24T09:42:50Z</time></trkpt><trkpt lat="45.357868" lon="22.876278"><ele>1960.308</ele><time>2020-07-24T09:43:02Z</time></trkpt><trkpt lat="45.357847" lon="22.876207"><ele>1960.073</ele><time>2020-07-24T09:43:09Z</time></trkpt><trkpt lat="45.357846" lon="22.876133"><ele>1959.291</ele><time>2020-07-24T09:43:15Z</time></trkpt><trkpt lat="45.357849" lon="22.876055"><ele>1958.773</ele><time>2020-07-24T09:43:22Z</time></trkpt><trkpt lat="45.357871" lon="22.875991"><ele>1958.751</ele><time>2020-07-24T09:43:32Z</time></trkpt><trkpt lat="45.357875" lon="22.875926"><ele>1958.664</ele><time>2020-07-24T09:43:38Z</time></trkpt><trkpt lat="45.357826" lon="22.875899"><ele>1958.739</ele><time>2020-07-24T09:43:43Z</time></trkpt><trkpt lat="45.357772" lon="22.875889"><ele>1958.837</ele><time>2020-07-24T09:43:50Z</time></trkpt><trkpt lat="45.357729" lon="22.875867"><ele>1958.978</ele><time>2020-07-24T09:43:57Z</time></trkpt><trkpt lat="45.357763" lon="22.875820"><ele>1958.593</ele><time>2020-07-24T09:47:50Z</time></trkpt><trkpt lat="45.357807" lon="22.875781"><ele>1958.665</ele><time>2020-07-24T09:47:56Z</time></trkpt><trkpt lat="45.357836" lon="22.875714"><ele>1958.521</ele><time>2020-07-24T09:48:04Z</time></trkpt><trkpt lat="45.357861" lon="22.875655"><ele>1958.408</ele><time>2020-07-24T09:48:09Z</time></trkpt><trkpt lat="45.357905" lon="22.875627"><ele>1958.054</ele><time>2020-07-24T09:48:14Z</time></trkpt><trkpt lat="45.357939" lon="22.875569"><ele>1957.632</ele><time>2020-07-24T09:48:23Z</time></trkpt><trkpt lat="45.357950" lon="22.875495"><ele>1957.594</ele><time>2020-07-24T09:48:29Z</time></trkpt><trkpt lat="45.357961" lon="22.875433"><ele>1956.722</ele><time>2020-07-24T09:48:37Z</time></trkpt><trkpt lat="45.357985" lon="22.875367"><ele>1955.265</ele><time>2020-07-24T09:48:45Z</time></trkpt><trkpt lat="45.358000" lon="22.875306"><ele>1954.590</ele><time>2020-07-24T09:48:52Z</time></trkpt><trkpt lat="45.358038" lon="22.875241"><ele>1954.378</ele><time>2020-07-24T10:05:27Z</time></trkpt><trkpt lat="45.358068" lon="22.875297"><ele>1954.329</ele><time>2020-07-24T10:05:46Z</time></trkpt><trkpt lat="45.358063" lon="22.875364"><ele>1952.681</ele><time>2020-07-24T11:37:59Z</time></trkpt><trkpt lat="45.358034" lon="22.875303"><ele>1953.161</ele><time>2020-07-24T11:44:38Z</time></trkpt></trkseg></trk></gpx>